HIERARCHY
ROOT hips_JNT
{
    OFFSET 0 0 0
    CHANNELS 6 Xposition Yposition Zposition Zrotation Xrotation Yrotation
    JOINT spine_JNT
    {
        OFFSET -0.000424254 9.31981 2.54342
        CHANNELS 3 Zrotation Xrotation Yrotation
        JOINT spine1_JNT
        {
            OFFSET 0 10.8731 -4.54485e-05
            CHANNELS 3 Zrotation Xrotation Yrotation
            JOINT spine2_JNT
            {
                OFFSET 0 12.4264 -5.95116
                CHANNELS 3 Zrotation Xrotation Yrotation
                JOINT neck_JNT
                {
                    OFFSET 0 13.9797 -1.46048
                    CHANNELS 3 Zrotation Xrotation Yrotation
                    JOINT head_JNT
                    {
                        OFFSET 0 5.8702 2.0915
                        CHANNELS 3 Zrotation Xrotation Yrotation
                        End Site
                        {
                            OFFSET 0 0 0
                        }
                    }
                }
                JOINT l_shoulder_JNT
                {
                    OFFSET 4.39914 12.861 -1.48501
                    CHANNELS 3 Zrotation Xrotation Yrotation
                    JOINT l_arm_JNT
                    {
                        OFFSET 8.75735 -2.31198 -0.0490516
                        CHANNELS 3 Zrotation Xrotation Yrotation
                        JOINT l_forearm_JNT
                        {
                            OFFSET 26.9001 -4.76837e-05 1.2666e-05
                            CHANNELS 3 Zrotation Xrotation Yrotation
                            JOINT l_hand_JNT
                            {
                                OFFSET 23.0148 -4.76837e-05 -3.72529e-06
                                CHANNELS 3 Zrotation Xrotation Yrotation
                                JOINT l_handThumb1_JNT
                                {
                                    OFFSET 3.63 -0.779998 2.13
                                    CHANNELS 3 Zrotation Xrotation Yrotation
                                    JOINT l_handThumb2_JNT
                                    {
                                        OFFSET 3.55114 -2.11837 2.24006
                                        CHANNELS 3 Zrotation Xrotation Yrotation
                                        JOINT l_handThumb3_JNT
                                        {
                                            OFFSET 2.15911 -1.11631 0.963467
                                            CHANNELS 3 Zrotation Xrotation Yrotation
                                            End Site
                                            {
                                                OFFSET 0 0 0
                                            }
                                        }
                                    }
                                }
                                JOINT l_handIndex1_JNT
                                {
                                    OFFSET 10.5149 -0.0410199 2.19757
                                    CHANNELS 3 Zrotation Xrotation Yrotation
                                    JOINT l_handIndex2_JNT
                                    {
                                        OFFSET 2.75183 -0.102866 -0.139054
                                        CHANNELS 3 Zrotation Xrotation Yrotation
                                        JOINT l_handIndex3_JNT
                                        {
                                            OFFSET 2.35301 -0.0733972 -0.0904871
                                            CHANNELS 3 Zrotation Xrotation Yrotation
                                            End Site
                                            {
                                                OFFSET 0 0 0
                                            }
                                        }
                                    }
                                }
                                JOINT l_handMiddle1_JNT
                                {
                                    OFFSET 10.0671 0.139201 0.0595726
                                    CHANNELS 3 Zrotation Xrotation Yrotation
                                    JOINT l_handMiddle2_JNT
                                    {
                                        OFFSET 3.90903 -0.288403 -0.119066
                                        CHANNELS 3 Zrotation Xrotation Yrotation
                                        JOINT l_handMiddle3_JNT
                                        {
                                            OFFSET 2.3284 -0.0191092 -0.0594396
                                            CHANNELS 3 Zrotation Xrotation Yrotation
                                            End Site
                                            {
                                                OFFSET 0 0 0
                                            }
                                        }
                                    }
                                }
                                JOINT l_handRing1_JNT
                                {
                                    OFFSET 9.46811 0.132239 -1.80983
                                    CHANNELS 3 Zrotation Xrotation Yrotation
                                    JOINT l_handRing2_JNT
                                    {
                                        OFFSET 3.28153 -0.224054 -0.0339366
                                        CHANNELS 3 Zrotation Xrotation Yrotation
                                        JOINT l_handRing3_JNT
                                        {
                                            OFFSET 2.245 -0.0702143 -0.00838935
                                            CHANNELS 3 Zrotation Xrotation Yrotation
                                            End Site
                                            {
                                                OFFSET 0 0 0
                                            }
                                        }
                                    }
                                }
                                JOINT l_handPinky1_JNT
                                {
                                    OFFSET 8.49077 -0.0777721 -3.58415
                                    CHANNELS 3 Zrotation Xrotation Yrotation
                                    JOINT l_handPinky2_JNT
                                    {
                                        OFFSET 2.53217 -0.0730753 -0.0170402
                                        CHANNELS 3 Zrotation Xrotation Yrotation
                                        JOINT l_handPinky3_JNT
                                        {
                                            OFFSET 1.95121 0.0251174 0.0170089
                                            CHANNELS 3 Zrotation Xrotation Yrotation
                                            End Site
                                            {
                                                OFFSET 0 0 0
                                            }
                                        }
                                    }
                                }
                            }
                        }
                    }
                }
                JOINT r_shoulder_JNT
                {
                    OFFSET -4.39782 12.8606 -1.48501
                    CHANNELS 3 Zrotation Xrotation Yrotation
                    JOINT r_arm_JNT
                    {
                        OFFSET -8.75732 -2.312 -0.0490502
                        CHANNELS 3 Zrotation Xrotation Yrotation
                        JOINT r_forearm_JNT
                        {
                            OFFSET -26.9 0 1.00583e-05
                            CHANNELS 3 Zrotation Xrotation Yrotation
                            JOINT r_hand_JNT
                            {
                                OFFSET -23.0149 0 0
                                CHANNELS 3 Zrotation Xrotation Yrotation
                                JOINT r_handThumb1_JNT
                                {
                                    OFFSET -3.63 -0.779998 2.13
                                    CHANNELS 3 Zrotation Xrotation Yrotation
                                    JOINT r_handThumb2_JNT
                                    {
                                        OFFSET -3.5512 -2.118 2.24006
                                        CHANNELS 3 Zrotation Xrotation Yrotation
                                        JOINT r_handThumb3_JNT
                                        {
                                            OFFSET -2.1591 -1.116 0.963467
                                            CHANNELS 3 Zrotation Xrotation Yrotation
                                            End Site
                                            {
                                                OFFSET 0 0 0
                                            }
                                        }
                                    }
                                }
                                JOINT r_handIndex1_JNT
                                {
                                    OFFSET -10.5149 -0.0409961 2.19756
                                    CHANNELS 3 Zrotation Xrotation Yrotation
                                    JOINT r_handIndex2_JNT
                                    {
                                        OFFSET -2.7518 -0.102997 -0.13905
                                        CHANNELS 3 Zrotation Xrotation Yrotation
                                        JOINT r_handIndex3_JNT
                                        {
                                            OFFSET -2.353 -0.0730038 -0.0904899
                                            CHANNELS 3 Zrotation Xrotation Yrotation
                                            End Site
                                            {
                                                OFFSET 0 0 0
                                            }
                                        }
                                    }
                                }
                                JOINT r_handMiddle1_JNT
                                {
                                    OFFSET -10.0671 0.139999 0.05957
                                    CHANNELS 3 Zrotation Xrotation Yrotation
                                    JOINT r_handMiddle2_JNT
                                    {
                                        OFFSET -3.9091 -0.288999 -0.11907
                                        CHANNELS 3 Zrotation Xrotation Yrotation
                                        JOINT r_handMiddle3_JNT
                                        {
                                            OFFSET -2.3284 -0.019002 -0.05944
                                            CHANNELS 3 Zrotation Xrotation Yrotation
                                            End Site
                                            {
                                                OFFSET 0 0 0
                                            }
                                        }
                                    }
                                }
                                JOINT r_handRing1_JNT
                                {
                                    OFFSET -9.4681 0.133002 -1.80983
                                    CHANNELS 3 Zrotation Xrotation Yrotation
                                    JOINT r_handRing2_JNT
                                    {
                                        OFFSET -3.2816 -0.224996 -0.0339396
                                        CHANNELS 3 Zrotation Xrotation Yrotation
                                        JOINT r_handRing3_JNT
                                        {
                                            OFFSET -2.245 -0.0699997 -0.0083901
                                            CHANNELS 3 Zrotation Xrotation Yrotation
                                            End Site
                                            {
                                                OFFSET 0 0 0
                                            }
                                        }
                                    }
                                }
                                JOINT r_handPinky1_JNT
                                {
                                    OFFSET -8.4908 -0.0769973 -3.58415
                                    CHANNELS 3 Zrotation Xrotation Yrotation
                                    JOINT r_handPinky2_JNT
                                    {
                                        OFFSET -2.5322 -0.0740051 -0.0170402
                                        CHANNELS 3 Zrotation Xrotation Yrotation
                                        JOINT r_handPinky3_JNT
                                        {
                                            OFFSET -1.9512 0.0259995 0.0170097
                                            CHANNELS 3 Zrotation Xrotation Yrotation
                                            End Site
                                            {
                                                OFFSET 0 0 0
                                            }
                                        }
                                    }
                                }
                            }
                        }
                    }
                }
            }
        }
    }
    JOINT l_upleg_JNT
    {
        OFFSET 10.0614 -5.18575 -0.706233
        CHANNELS 3 Zrotation Xrotation Yrotation
        JOINT l_leg_JNT
        {
            OFFSET -0.348572 -45.5824 -0.819168
            CHANNELS 3 Zrotation Xrotation Yrotation
            JOINT l_foot_JNT
            {
                OFFSET 0.349145 -42.3325 -1.70849
                CHANNELS 3 Zrotation Xrotation Yrotation
                JOINT l_toebase_JNT
                {
                    OFFSET 0.0702709 -8.12666 12.8887
                    CHANNELS 3 Zrotation Xrotation Yrotation
                    End Site
                    {
                        OFFSET 0 0 0
                    }
                }
            }
        }
    }
    JOINT r_upleg_JNT
    {
        OFFSET -10.061 -5.18577 -0.706233
        CHANNELS 3 Zrotation Xrotation Yrotation
        JOINT r_leg_JNT
        {
            OFFSET 0.34858 -45.5824 -0.819165
            CHANNELS 3 Zrotation Xrotation Yrotation
            JOINT r_foot_JNT
            {
                OFFSET -0.34918 -42.3325 -1.70849
                CHANNELS 3 Zrotation Xrotation Yrotation
                JOINT r_toebase_JNT
                {
                    OFFSET -0.0702001 -8.12666 12.8887
                    CHANNELS 3 Zrotation Xrotation Yrotation
                    End Site
                    {
                        OFFSET 0 0 0
                    }
                }
            }
        }
    }
}
MOTION
Frames: 61
Frame Time: 0.05
-0.0236046 11.8188 0.50624 12.5072 19.6167 -3.79735 -26.3786 -0.000680126 0 -5.33608e-08 -1.70755e-06 0 -1.9456 0.0102385 15.7955 4.74704 21.6121 -3.90809 -6.60973 3.53087 -0.326259 -3.41509e-06 -6.61674e-06 0 18.6659 -2.26192 -13.0724 0.254994 -0.0457241 -20.3318 -2.13443e-07 -3.4818e-06 0 4.10661 20.7048 -22.2077 -0 0 0 -9.06807 -0.0716139 0.900479 -14.2841 4.23326 0.52934 -18.3869 5.40578 0.874014 -12.2376 3.63853 0.391671 -16.7004 3.28936 0.484567 -21.4871 4.18991 0.795242 -14.3104 2.83012 0.353877 -19.0506 -1.86949 -0.314035 -24.4992 -2.37458 -0.515861 -16.3275 -1.61032 -0.2307 -20.8882 -4.07881 -0.75173 -26.8852 -5.16782 -1.23541 -17.8962 -3.51689 -0.553906 -3.41509e-06 -6.61674e-06 0 -5.29688 -4.05026 53.564 -5.57147 -0.569834 11.6704 8.53773e-07 -2.56132e-06 0 -4.10661 20.7048 22.2077 -0 0 0 10.0455 0.0878432 0.999354 15.8304 4.6785 -0.651318 20.3826 5.96497 -1.07045 13.5609 4.02376 -0.481325 18.5052 3.63216 -0.588172 23.8128 4.61662 -0.974773 15.856 3.12776 -0.435212 21.1058 -2.06228 0.383594 27.1435 -2.61214 0.631798 18.0887 -1.7784 0.285305 23.1486 -4.49555 0.920253 29.8013 -5.67648 1.51074 19.8309 -3.88151 0.679547 92.4444 -36.2476 39.3515 -0.589118 27.3931 0.172458 0.37361 -0.781928 0.0395647 -3.18831e-06 -1.41406e-06 0 -175.564 -62.1523 -174.894 0.475167 12.1271 -0.285305 -1.62763 -4.97941 0.0791294 -8.53774e-07 3.41509e-06 0 
0.17695 12.0149 0.721459 12.047 19.5877 -3.33437 -25.9399 -0.00138834 0 -5.33609e-08 1.65419e-06 0 -1.86134 0.0264497 15.5144 4.57625 21.7867 -3.77025 -6.82545 3.35884 -0.338041 4.26887e-07 -6.36111e-15 0 18.1291 -2.18698 -12.6899 0.370323 -0.0673152 -20.6034 2.13443e-07 1.78759e-06 0 4.10661 20.7048 -22.2077 -0 0 0 -9.10104 -0.0721346 0.906543 -14.3362 4.24833 0.532289 -18.4542 5.42476 0.881149 -12.2822 3.65156 0.391671 -16.7613 3.30099 0.490985 -21.5655 4.20442 0.799169 -14.3626 2.8402 0.366908 -19.1199 -1.87603 -0.318981 -24.5884 -2.38268 -0.520393 -16.387 -1.61602 -0.227282 -20.9644 -4.09298 -0.755884 -26.9835 -5.18521 -1.24425 -17.9614 -3.52926 -0.553906 4.26887e-07 -6.36111e-15 0 -5.48818 -3.96844 53.981 -5.11847 -0.491427 10.9612 -8.53774e-07 1.70755e-06 0 -4.10661 20.7048 22.2077 -0 0 0 10.0536 0.087985 0.999354 15.8432 4.68218 -0.64891 20.3992 5.96959 -1.07482 13.5719 4.02695 -0.478062 18.5202 3.63499 -0.590827 23.8322 4.62014 -0.974773 15.8688 3.13022 -0.435212 21.1229 -2.06388 0.383594 27.1655 -2.6141 0.630558 18.1033 -1.77979 0.29074 23.1674 -4.49899 0.922802 29.8256 -5.68065 1.5154 19.847 -3.88453 0.681846 93.2616 -37.1831 39.4985 -0.544442 29.2234 0.172458 0.469611 -3.36324 0.125115 -7.57057e-06 -1.27266e-05 0 -174.94 -60.9992 -173.542 0.481438 14.8769 -0.318981 -1.53983 -6.47917 0.0395647 1.70755e-06 -1.01786e-05 0 
0.524684 12.3049 0.787852 11.3164 19.6121 -2.51886 -25.329 -0.00351025 0 8.53774e-07 -5.33608e-08 0 -1.67894 0.0643398 14.9585 4.18412 21.911 -3.44794 -6.90658 3.43367 -0.340348 2.13443e-07 2.13443e-07 0 17.3263 -2.14365 -12.3601 0.599371 -0.110071 -20.8123 -6.4033e-07 -8.00413e-08 0 4.10661 20.7048 -22.2077 -0 0 0 -9.15869 -0.0730494 0.90999 -14.4274 4.27467 0.542484 -18.5718 5.45791 0.891745 -12.3602 3.67433 0.399584 -16.8677 3.32129 0.489388 -21.7026 4.22977 0.811801 -14.4537 2.85781 0.362616 -19.2411 -1.88747 -0.321425 -24.7443 -2.39683 -0.523392 -16.4908 -1.62597 -0.240663 -21.0977 -4.11772 -0.769227 -27.1554 -5.21556 -1.25926 -18.0755 -3.55087 -0.560927 2.13443e-07 2.13443e-07 0 -5.69163 -3.86723 54.5512 -4.4973 -0.397851 10.1058 -8.53774e-07 -4.26887e-07 0 -4.10661 20.7048 22.2077 -0 0 0 10.0708 0.0882863 1.0017 15.8705 4.69001 -0.656107 20.4344 5.97939 -1.07846 13.5952 4.03373 -0.479697 18.5521 3.64101 -0.592151 23.8732 4.6276 -0.978779 15.8961 3.13545 -0.437006 21.1592 -2.06725 0.391671 27.2122 -2.61824 0.635504 18.1344 -1.78274 0.288035 23.2073 -4.50628 0.925342 29.877 -5.68949 1.51798 19.8811 -3.89092 0.681846 94.6361 -38.5687 40.1247 -0.553802 31.4769 0.29074 0.642328 -7.01165 0.125115 6.42998e-06 -1.28066e-06 0.0559529 -173.722 -60.4731 -170.994 0.48385 16.3458 -0.331022 -1.43935 -7.41833 0.0791294 8.53774e-07 -3.40175e-06 0 
0.993347 12.6252 0.540878 10.3546 19.6986 -1.29117 -24.6123 -0.00705848 0 -1.60083e-06 1.76091e-06 0 -1.39317 0.120275 14.0532 3.5386 21.985 -2.91581 -6.77981 3.8285 -0.316518 -1.92099e-06 6.4033e-07 0 16.3126 -2.14217 -12.2185 0.908787 -0.166926 -20.816 2.13443e-07 2.66804e-08 0 4.10661 20.7048 -22.2077 -0 0 0 -9.24279 -0.0743944 0.921953 -14.5604 4.31309 0.552491 -18.7434 5.50624 0.91085 -12.4741 3.70754 0.405418 -17.0229 3.35089 0.500458 -21.9027 4.26672 0.82424 -14.5867 2.88349 0.369035 -19.418 -1.90414 -0.321425 -24.9718 -2.41743 -0.538138 -16.6423 -1.64048 -0.243893 -21.2921 -4.15379 -0.780339 -27.4062 -5.25977 -1.28205 -18.2419 -3.58238 -0.574711 -1.92099e-06 6.4033e-07 0 -5.79118 -3.72889 55.2334 -3.78913 -0.305104 9.20354 1.70755e-06 -1.70755e-06 0 -4.10661 20.7048 22.2077 -0 0 0 10.1007 0.0888092 1.00482 15.9178 4.70355 -0.657299 20.4954 5.99635 -1.08641 13.6357 4.04546 -0.482949 18.6072 3.65142 -0.600029 23.9443 4.64051 -0.98595 15.9433 3.14451 -0.438794 21.222 -2.0731 0.387653 27.293 -2.6254 0.635504 18.1882 -1.78784 0.288035 23.2764 -4.5189 0.929562 29.9662 -5.7048 1.52723 19.9403 -3.90199 0.688699 96.5229 -40.3093 41.3993 -0.561133 33.6307 0.438794 0.784299 -11.3969 0 1.60083e-07 6.4033e-07 0 -171.615 -60.9689 -166.946 0.485769 15.5437 -0.259443 -1.43421 -7.26121 0.068528 -1.28066e-06 6.81685e-06 0 
1.55197 12.8741 -0.0803947 9.22975 19.855 0.377423 -23.8728 -0.010261 0 -1.92099e-06 -7.15625e-15 0.0559529 -1.01884 0.181339 12.7398 2.64267 22.0324 -2.17825 -6.3892 4.56485 -0.237388 1.23797e-05 1.10991e-05 0 15.2027 -2.17336 -12.4261 1.23033 -0.221736 -20.4327 -0 0 0 4.10661 20.7048 -22.2077 -0 0 0 -9.35144 -0.0761498 0.932085 -14.7322 4.36267 0.565097 -18.9651 5.5686 0.931244 -12.6211 3.75043 0.414958 -17.2235 3.3891 0.514341 -22.1611 4.31436 0.844872 -14.7584 2.91663 0.377423 -19.6464 -1.92564 -0.335718 -25.2657 -2.444 -0.548225 -16.8381 -1.65921 -0.240663 -21.5433 -4.20031 -0.798189 -27.7302 -5.31672 -1.31341 -18.4569 -3.62304 -0.58684 1.23797e-05 1.10991e-05 0 -5.65439 -3.51775 55.9519 -3.13296 -0.229481 8.3765 -8.53774e-07 2.98821e-06 0 -4.10661 20.7048 22.2077 -0 0 0 10.1455 0.0895973 1.00871 15.9888 4.72389 -0.665582 20.5871 6.02182 -1.09502 13.6964 4.06308 -0.487787 18.69 3.66705 -0.603929 24.0511 4.65989 -0.99543 16.0142 3.1581 -0.442347 21.3163 -2.08187 0.389667 27.4143 -2.63616 0.645281 18.2689 -1.79551 0.29074 23.3802 -4.53783 0.938778 30.1001 -5.72775 1.541 20.029 -3.9186 0.6921 98.8502 -42.3589 43.2377 -0.576636 35.3657 0.383594 0.839216 -16.1995 0.104678 5.33608e-07 1.28066e-06 0 -167.734 -62.7696 -160.617 0.476535 11.4739 -0.2307 -1.54424 -5.42658 0 4.96962e-17 -2.66804e-08 0 
2.20026 12.9444 -0.960513 8.02111 20.0937 2.5064 -23.1904 -0.0128987 0.0395647 7.47052e-07 -3.41509e-06 0.0559529 -0.59034 0.228995 10.9937 1.54293 22.1011 -1.27224 -5.71179 5.59691 -0.181308 3.97569e-16 -2.13443e-07 0 14.159 -2.21017 -13.1565 1.46402 -0.251001 -19.4564 -2.13443e-07 -1.76091e-06 0 4.10661 20.7048 -22.2077 -0 0 0 -9.47653 -0.0781962 0.942938 -14.9301 4.41972 0.578782 -19.2204 5.6403 0.956126 -12.7905 3.79977 0.429783 -17.4545 3.43303 0.526374 -22.4587 4.36911 0.866821 -14.9562 2.95477 0.387653 -19.9094 -1.95036 -0.340348 -25.6041 -2.4745 -0.563711 -17.0635 -1.68075 -0.253338 -21.8326 -4.25378 -0.822338 -28.1033 -5.38209 -1.34637 -18.7045 -3.66978 -0.607805 3.97569e-16 -2.13443e-07 0 -5.16611 -3.1861 56.6016 -2.70468 -0.183018 7.74059 1.70755e-06 -4.26887e-07 0 -4.10661 20.7048 22.2077 -0 0 0 10.2072 0.0906878 1.01335 16.0865 4.75187 -0.672601 20.7133 6.05684 -1.10782 13.78 4.08732 -0.490985 18.804 3.68855 -0.612934 24.198 4.68653 -1.00482 16.1118 3.17681 -0.447624 21.4461 -2.09394 0.39762 27.5813 -2.65094 0.651318 18.3802 -1.80605 0.29074 23.523 -4.56387 0.951202 30.2844 -5.75929 1.55768 20.1513 -3.94145 0.697732 101.506 -44.822 45.1969 -0.511556 36.7464 0.265408 0.673706 -21.2202 0.0395647 -2.77476e-06 -8.53773e-07 0 -157.171 -67.7064 -147.555 0.467892 -1.28245 0.118694 -1.81689 1.00018 0.111906 1.49088e-16 4.00206e-08 0 
2.96342 12.7662 -1.84869 6.80108 20.43 5.0489 -22.6251 -0.0140267 0.0395647 -1.06722e-07 -1.70755e-06 0 -0.1553 0.244372 8.84709 0.330278 22.2599 -0.279765 -4.77146 6.80382 0.104678 -8.53774e-07 1.59028e-15 0 13.3666 -2.22835 -14.574 1.48124 -0.230401 -17.6823 6.4033e-07 -5.12264e-06 0 4.10661 20.7048 -22.2077 -0 0 0 -9.61336 -0.0804653 0.956126 -15.1465 4.48205 0.596103 -19.4998 5.7186 0.982769 -12.9757 3.8537 0.438794 -17.7071 3.48103 0.542484 -22.7843 4.42886 0.892622 -15.1726 2.99644 0.399584 -20.1971 -1.97736 -0.353877 -25.9743 -2.50777 -0.577428 -17.31 -1.70429 -0.265408 -22.149 -4.31213 -0.843945 -28.5115 -5.45333 -1.38647 -18.9753 -3.72083 -0.623066 -8.53774e-07 1.59028e-15 0 -4.25312 -2.69543 57.0628 -2.67818 -0.17294 7.38791 -4.05024e-14 1.28066e-06 0 -4.10661 20.7048 22.2077 -0 0 0 10.2772 0.091932 1.01951 16.1973 4.78357 -0.680697 20.8563 6.09651 -1.12255 13.8748 4.11479 -0.503577 18.9333 3.71291 -0.620549 24.3646 4.7167 -1.01875 16.2225 3.198 -0.452839 21.5932 -2.10761 0.407344 27.7706 -2.66767 0.657299 18.5062 -1.818 0.296075 23.6849 -4.59336 0.963466 30.4934 -5.79498 1.58062 20.2898 -3.96733 0.712165 104.62 -47.7043 47.056 -0.599379 38.0403 0.379491 0.381715 -25.8976 -0.387653 -3.20165e-06 -4.77083e-14 0 -151.928 -66.3407 -138.863 0.467969 -1.2824 0.118694 -2.15858 1.00229 0.111906 2.13443e-07 3.44845e-06 0 
3.84536 12.3484 -2.50586 5.62115 20.8755 7.90461 -22.2062 -0.0121088 0 1.70755e-06 1.4941e-06 0 0.235814 0.216195 6.40934 -0.873232 22.5888 0.718729 -3.64081 8.00127 0 -2.22639e-14 1.4941e-06 0 12.9967 -2.24609 -16.7938 1.13059 -0.148402 -14.9555 4.26887e-07 1.81427e-06 0 4.10661 20.7048 -22.2077 -0 0 0 -9.74402 -0.0826623 0.969136 -15.3533 4.54152 0.611656 -19.7666 5.79324 1.01103 -13.1526 3.90516 0.451107 -17.9484 3.5268 0.55953 -23.0952 4.48579 0.917698 -15.3792 3.03619 0.40926 -20.4719 -2.00309 -0.356082 -26.3278 -2.53944 -0.592151 -17.5454 -1.72673 -0.271242 -22.4512 -4.36773 -0.868625 -28.9014 -5.5211 -1.42324 -19.234 -3.76951 -0.635504 -2.22639e-14 1.4941e-06 0 -2.89176 -2.04544 57.2231 -3.18022 -0.20476 7.36625 -1.38901e-14 4.26887e-07 0 -4.10661 20.7048 22.2077 -0 0 0 10.3582 0.0933828 1.03248 16.3255 4.82025 -0.694358 21.0219 6.14239 -1.1426 13.9845 4.14657 -0.509756 19.0829 3.74109 -0.629316 24.5575 4.75158 -1.03324 16.3506 3.22252 -0.468136 21.7635 -2.12342 0.407344 27.9898 -2.687 0.670269 18.6522 -1.83182 0.301316 23.8724 -4.62745 0.979578 30.7354 -5.8362 1.60616 20.4503 -3.99726 0.718729 108.362 -50.9396 49.2018 -0.599311 38.8129 0.509756 0.1149 -25.6858 -0.641632 -7.25708e-06 8.53774e-07 0 -146.953 -64.3539 -130.187 0.467146 -1.28257 -0.153233 -2.48916 1.24104 0.118694 9.60494e-07 -2.37856e-05 0 
4.78686 11.7988 -2.83654 4.50687 21.4281 10.9039 -21.9299 -0.00845183 0 1.4941e-06 -1.92099e-06 0 0.542701 0.1494 3.86883 -1.93522 23.1615 1.60079 -2.43094 8.96937 0 -3.41509e-06 -2.56132e-06 0 13.1589 -2.36312 -19.8266 0.261675 -0.0257427 -11.2404 6.4033e-07 -1.65419e-06 0 4.10661 20.7048 -22.2077 -0 0 0 -9.86373 -0.084701 0.982769 -15.5427 4.59595 0.626823 -20.0112 5.86152 1.03551 -13.3147 3.95229 0.46478 -18.1695 3.56868 0.570611 -23.3802 4.53783 0.938778 -15.5685 3.07258 0.418713 -20.7236 -2.02663 -0.373253 -26.6518 -2.56838 -0.609091 -17.7612 -1.74726 -0.271242 -22.7281 -4.41857 -0.890867 -29.2587 -5.58297 -1.45962 -19.471 -3.81404 -0.654913 -3.41509e-06 -2.56132e-06 0 -1.10466 -1.29668 57.0051 -4.24869 -0.28495 7.66974 -8.53774e-07 -2.13443e-06 0 -4.10661 20.7048 22.2077 -0 0 0 10.4357 0.0947824 1.03853 16.4483 4.85534 -0.703318 21.1805 6.18627 -1.15757 14.0896 4.17699 -0.517376 19.2262 3.76804 -0.639188 24.7422 4.78492 -1.04903 16.4733 3.24598 -0.468136 21.9266 -2.13854 0.418713 28.1997 -2.70547 0.679547 18.7919 -1.84504 0.306467 24.0519 -4.66004 0.993857 30.9671 -5.87557 1.62987 20.6039 -4.02589 0.73061 112.831 -54.2785 51.8468 -0.597389 40.0201 0.75173 0.0758167 -25.3223 -0.768209 -0 0 0 -142.675 -61.8959 -122.204 0.465121 -1.28299 -0.158259 -2.73794 1.70464 0.193827 2.34788e-06 6.51002e-06 0 
5.67556 11.2997 -2.90351 3.46532 22.0643 13.8135 -21.7647 -0.00345142 0.0395647 -2.50469e-14 -1.4941e-06 0 0.74342 0.0612438 1.46069 -2.73956 24.0239 2.27389 -1.26845 9.50005 0 -2.13443e-07 1.34469e-05 0 13.8525 -2.75017 -23.5183 -1.21458 0.0709888 -6.6889 1.70755e-06 -3.25501e-06 0 4.10661 20.7048 -22.2077 -0 0 0 -9.95952 -0.0863501 0.99228 -15.6943 4.63947 0.639188 -20.2069 5.91607 1.05572 -13.4445 3.98997 0.471468 -18.3464 3.60215 0.577428 -23.6082 4.57939 0.956945 -15.72 3.10167 0.426125 -20.9251 -2.04543 -0.381548 -26.911 -2.59147 -0.619286 -17.9338 -1.76368 -0.285305 -22.9498 -4.45917 -0.906543 -29.5447 -5.63232 -1.48514 -19.6607 -3.84962 -0.666757 -2.13443e-07 1.34469e-05 0 1.03859 -0.570461 56.3929 -5.80391 -0.418848 8.24815 8.53774e-07 -1.28066e-06 0 -4.10661 20.7048 22.2077 -0 0 0 10.5099 0.0961299 1.04604 16.5657 4.88887 -0.713264 21.3322 6.22817 -1.17368 14.19 4.20606 -0.521894 19.3632 3.79379 -0.650115 24.9188 4.81675 -1.06678 16.5906 3.26839 -0.474777 22.0825 -2.15297 0.414958 28.4003 -2.7231 0.690968 18.9255 -1.85767 0.311533 24.2235 -4.69115 1.00716 31.1886 -5.91311 1.65134 20.7507 -4.05324 0.743354 111.188 -51.9855 48.9789 -0.336984 28.3448 0.495744 -1.65788 -18.0462 -0.981973 -2.56132e-06 3.41509e-06 0 -139.313 -59.286 -115.423 0.464499 -1.28313 -0.193827 -2.89186 2.34127 0.243893 -1.70755e-06 4.26887e-07 0 
6.404 11.0366 -2.83747 2.49442 22.7491 16.3925 -21.663 0.00146512 0 -4.26887e-07 -1.92099e-06 0 0.837584 -0.0253285 -0.578782 -3.20704 25.1727 2.67265 -0.270349 9.44777 0 -2.56132e-06 3.41509e-06 0 14.9639 -3.53755 -27.5221 -3.24676 0.0474358 -1.67393 -2.34788e-06 3.25501e-06 0 4.10661 20.7048 -22.2077 -0 0 0 -10.0283 -0.0875435 0.997786 -15.8032 4.67069 0.646493 -20.3474 5.95519 1.07191 -13.5376 4.017 0.476422 -18.4734 3.62616 0.588172 -23.7719 4.60918 0.97075 -15.8288 3.12254 0.437006 -21.0697 -2.05891 -0.381548 -27.097 -2.60801 -0.625573 -18.0577 -1.77545 -0.285305 -23.1089 -4.48828 -0.917698 -29.75 -5.66766 -1.50555 -19.7968 -3.87514 -0.674924 -2.56132e-06 3.41509e-06 0 3.40041 -0.0112675 55.4469 -7.64714 -0.602963 9.00308 2.56132e-06 -1.28066e-06 0 -4.10661 20.7048 22.2077 -0 0 0 10.5745 0.0973132 1.04977 16.6682 4.9181 -0.719817 21.4645 6.26469 -1.18958 14.2777 4.2314 -0.530816 19.4827 3.81623 -0.654913 25.0729 4.84448 -1.07773 16.6929 3.28793 -0.486179 22.2185 -2.16555 0.424284 28.5753 -2.73845 0.697732 19.042 -1.86868 0.314035 24.3732 -4.71826 1.02028 31.3818 -5.94579 1.67159 20.8788 -4.07706 0.752771 111.826 -49.9491 47.9969 2.37267 20.8281 -0.99228 -5.73852 -13.3127 -0.596103 8.53774e-07 3.41509e-06 0 -136.887 -56.9433 -109.246 0.462129 -1.28357 -0.234068 -2.99569 3.12895 0.314035 -8.53774e-07 -3.20165e-06 0 
6.9283 11.1118 -2.73397 1.58534 23.454 18.4611 -21.5731 0.00518264 0 1.70755e-06 -1.92099e-06 0 0.843783 -0.0932258 -2.1544 -3.31011 26.5465 2.77242 0.477156 8.77001 0 -1.06722e-06 -2.34788e-06 0 16.4898 -4.43846 -29.8409 -5.64939 0.15977 0 -6.4033e-07 -1.70755e-06 0 4.10661 20.7048 -22.2077 -0 0 0 -10.0699 -0.0882702 1.00248 -15.8691 4.68959 0.653717 -20.4325 5.97887 1.07846 -13.594 4.03337 0.479697 -18.5504 3.64068 0.590827 -23.871 4.6272 0.978779 -15.8946 3.13517 0.444113 -21.1573 -2.06707 -0.391671 -27.2097 -2.61802 -0.630558 -18.1327 -1.78258 -0.29074 -23.2052 -4.50589 -0.925342 -29.8743 -5.68902 -1.51901 -19.8793 -3.89058 -0.678394 -1.06722e-06 -2.34788e-06 0 5.74404 0.282977 54.302 -9.49381 -0.816137 9.80426 -1.70755e-06 -2.13443e-07 0 -4.10661 20.7048 22.2077 -0 0 0 10.6284 0.098304 1.05646 16.7535 4.94243 -0.73061 21.5747 6.29507 -1.20071 14.3507 4.2525 -0.536682 19.5822 3.8349 -0.659676 25.2012 4.86754 -1.08785 16.7781 3.3042 -0.484567 22.3318 -2.17602 0.43341 28.7211 -2.75121 0.702205 19.1391 -1.87784 0.318981 24.4979 -4.74081 1.03021 31.5428 -5.97296 1.6879 20.9855 -4.09689 0.761043 114.665 -38.6402 85.3262 -13.4553 17.435 7.98947 -8.08865 -9.38092 -3.52295 1.17394e-06 1.06722e-06 0 -135.175 -55.0365 -105.166 0.460502 -1.28392 -0.282548 -2.97586 3.96217 0.347179 -5.12264e-06 -9.60495e-06 0 
7.28303 11.5067 -2.61201 0.717303 24.1728 19.9553 -21.4482 0.00779433 0.0395647 4.26887e-07 -1.19271e-14 0 0.792092 -0.137592 -3.24923 -3.07258 28.0322 2.58663 0.92573 7.54056 0.0559529 -0 0 0 18.3125 -5.33347 -30.9965 -8.20795 0.532069 0.068528 8.53774e-07 5.33609e-08 0 4.10661 20.7048 -22.2077 -0 0 0 -10.0867 -0.0885632 1.00326 -15.8956 4.69719 0.654913 -20.4668 5.98838 1.08425 -13.6167 4.03995 0.476422 -18.5813 3.64653 0.597414 -23.9109 4.63444 0.981175 -15.9211 3.14025 0.438794 -21.1925 -2.07035 -0.387653 -27.255 -2.62204 -0.634271 -18.1629 -1.78544 -0.276953 -23.244 -4.51297 -0.927033 -29.9243 -5.69761 -1.52415 -19.9125 -3.89679 -0.685281 -0 0 0 7.02804 0.854642 53.1446 -11.1906 -1.01435 10.3259 8.53774e-07 -8.53774e-07 0 -4.10661 20.7048 22.2077 -0 0 0 10.6753 0.0991722 1.05942 16.8279 4.96364 -0.73701 21.6708 6.32155 -1.21045 14.4143 4.27089 -0.539591 19.669 3.85118 -0.666757 25.3131 4.88763 -1.0993 16.8524 3.31838 -0.494163 22.4306 -2.18514 0.43341 28.8482 -2.76232 0.709964 19.2237 -1.88583 0.318981 24.6067 -4.76046 1.04004 31.6832 -5.99661 1.70314 21.0786 -4.11417 0.767189 110.231 -32.164 110.468 -20.2822 18.2598 8.74045 -10.9386 -8.25068 -4.7047 -8.53774e-07 4.26887e-06 0 -134.071 -53.6775 -102.456 0.460226 -1.28397 -0.285305 -2.81747 4.86614 0.347179 1.70755e-06 6.61675e-06 0 
7.54576 12.123 -2.43926 -0.141901 24.9223 20.9272 -21.253 0.00916196 0.0395647 4.26887e-07 7.95139e-16 0 0.713517 -0.163581 -4.00934 -2.55691 29.4849 2.1631 1.06047 5.93315 0 1.70755e-06 -2.13443e-07 0 20.2833 -6.13391 -31.5632 -10.6946 0.962194 0 2.13443e-07 -3.36173e-06 0 4.10661 20.7048 -22.2077 -0 0 0 -10.0818 -0.0884774 1.00092 -15.8878 4.69496 0.657299 -20.4567 5.9856 1.08063 -13.61 4.03802 0.481325 -18.5722 3.64482 0.597414 -23.8992 4.63232 0.979578 -15.9134 3.13877 0.437006 -21.1822 -2.06939 -0.383594 -27.2417 -2.62086 -0.635504 -18.154 -1.7846 -0.285305 -23.2326 -4.51089 -0.926188 -29.9097 -5.69509 -1.52312 -19.9028 -3.89497 -0.682993 1.70755e-06 -2.13443e-07 0 7.81407 1.16472 52.145 -12.2355 -1.14293 10.633 3.99557e-14 -1.28066e-06 0 -4.10661 20.7048 22.2077 -0 0 0 10.7229 0.100056 1.06532 16.9033 4.98513 -0.741245 21.7682 6.34837 -1.2214 14.4788 4.28953 -0.542484 19.7569 3.86766 -0.6691 25.4265 4.90798 -1.10852 16.9277 3.33274 -0.497321 22.5307 -2.19437 0.440574 28.977 -2.77357 0.716548 19.3095 -1.89391 0.326259 24.7169 -4.78035 1.04828 31.8255 -6.02054 1.71824 21.1729 -4.13168 0.771259 109.576 -32.968 132.662 -15.2925 24.657 3.51182 -12.7651 -12.4592 -5.70943 -1.70755e-05 -8.53773e-07 0 -133.448 -52.7746 -100.899 0.462177 -1.28361 -0.243893 -2.44926 5.842 0.268341 7.68396e-06 1.64351e-05 0 
7.78207 12.8633 -2.18274 -1.01868 25.7302 21.492 -20.97 0.0101433 0 7.95139e-16 -4.26887e-07 0 0.62866 -0.180106 -4.61532 -1.83648 30.755 1.56119 0.88306 4.18319 0.0395647 8.53774e-07 2.34788e-06 0 22.2835 -6.74269 -31.4241 -12.9208 1.29536 0.0395647 -0 0 0 4.10661 20.7048 -22.2077 -0 0 0 -10.0571 -0.0880463 1.00092 -15.8488 4.68378 0.650115 -20.4064 5.97159 1.07555 -13.5766 4.02834 0.482949 -18.5267 3.63622 0.592151 -23.8405 4.62166 0.973165 -15.8744 3.13129 0.435212 -21.1303 -2.06456 -0.389667 -27.175 -2.61494 -0.631798 -18.1096 -1.78039 -0.288035 -23.1756 -4.50047 -0.921104 -29.836 -5.68245 -1.51488 -19.8539 -3.88583 -0.680697 8.53774e-07 2.34788e-06 0 7.99873 1.19389 51.4315 -12.2922 -1.16484 10.7857 -8.53774e-07 2.13443e-06 0 -4.10661 20.7048 22.2077 -0 0 0 10.7822 0.101161 1.07118 16.9972 5.01186 -0.750688 21.8894 6.38173 -1.23668 14.5591 4.31272 -0.552491 19.8665 3.88817 -0.682993 25.5677 4.93328 -1.12046 17.0215 3.35061 -0.497321 22.6553 -2.20586 0.440574 29.1373 -2.78756 0.725234 19.4163 -1.90398 0.333378 24.8541 -4.80509 1.06016 32.0026 -6.05028 1.73636 21.2903 -4.15345 0.780339 118.998 -32.6668 140.527 -0.635315 34.7927 -0.853169 -19.0346 -16.7277 -7.16467 -1.70755e-06 -6.83019e-06 0 -136.136 -51.8134 -102.57 0.467762 2.54432 -0.137056 -1.826 4.87707 0.104678 -8.53774e-07 3.41509e-06 0 
8.01198 13.6742 -1.84245 -1.90913 26.6188 21.7647 -20.603 0.0112006 0.0559529 4.26887e-07 1.70755e-06 0 0.535111 -0.194075 -5.23093 -0.970647 31.7116 0.827083 0.400893 2.54383 0 3.18055e-15 2.13443e-07 0 24.2254 -7.0874 -30.5484 -14.7669 1.39775 0.0559529 8.53774e-07 1.76091e-06 0 4.10661 20.7048 -22.2077 -0 0 0 -10.0131 -0.08728 0.993857 -15.7792 4.66382 0.646493 -20.3165 5.94658 1.06605 -13.5171 4.01105 0.476422 -18.4455 3.62087 0.589501 -23.7358 4.60262 0.967519 -15.8048 3.11795 0.429783 -21.0378 -2.05595 -0.385629 -27.056 -2.60437 -0.629316 -18.0304 -1.77286 -0.279765 -23.0738 -4.48187 -0.917698 -29.7047 -5.65988 -1.50138 -19.7669 -3.86952 -0.672601 3.18055e-15 2.13443e-07 0 7.54094 0.944136 51.0855 -11.1186 -1.06761 10.9354 1.98785e-16 2.13443e-07 0 -4.10661 20.7048 22.2077 -0 0 0 10.8646 0.10271 1.08208 17.1278 5.04905 -0.758984 22.0583 6.42811 -1.25552 14.6709 4.34498 -0.55953 20.0189 3.91669 -0.69323 25.7642 4.96844 -1.13641 17.1519 3.37547 -0.511289 22.8287 -2.22183 0.452839 29.3605 -2.80698 0.734883 19.5649 -1.91797 0.331022 25.0451 -4.83948 1.07555 32.2492 -6.09157 1.76276 21.4537 -4.18372 0.795242 119.666 -31.7291 142.673 -0.650675 35.9727 -0.959395 -15.7273 -17.509 -6.0656 -1.70755e-06 -4.26887e-06 0 -138.326 -51.0525 -104.295 0.552639 5.45235 0.148037 -1.05671 4.35919 0.111906 8.53774e-07 3.84198e-06 0 
8.21984 14.5218 -1.45201 -2.75987 27.5907 21.814 -20.1754 0.0115479 0 -0 0 0 0.403868 -0.204634 -5.95394 0.000878096 32.2538 0.0559529 -0.374595 1.2551 0 -0 0 0 26.0494 -7.12836 -28.9824 -16.1982 1.21539 0.0395647 -1.06722e-07 -1.06722e-07 0 4.10661 20.7048 -22.2077 -0 0 0 -9.94978 -0.0861817 0.989911 -15.6789 4.63505 0.641632 -20.187 5.91053 1.05275 -13.4313 3.98614 0.466461 -18.3284 3.59875 0.582825 -23.585 4.57517 0.953667 -15.7046 3.09871 0.426125 -20.9046 -2.04352 -0.37115 -26.8846 -2.58912 -0.621808 -17.9162 -1.76201 -0.276953 -22.9272 -4.45505 -0.904815 -29.5156 -5.62731 -1.48303 -19.6414 -3.846 -0.670269 -0 0 0 6.32994 0.548854 51.1577 -8.68672 -0.855622 11.2294 -5.08889e-14 1.70755e-06 0 -4.10661 20.7048 22.2077 -0 0 0 10.979 0.104877 1.09288 17.3091 5.10058 -0.777324 22.2924 6.49234 -1.28022 14.8259 4.3897 -0.569237 20.2303 3.9562 -0.706649 26.0367 5.0171 -1.16094 17.3329 3.40992 -0.518886 23.0693 -2.24395 0.456282 29.6701 -2.83386 0.749645 19.771 -1.93736 0.340348 25.31 -4.88708 1.09574 32.5912 -6.14866 1.7988 21.6803 -4.22565 0.807935 119.974 -30.4488 145.115 -0.64858 37.1573 -0.699972 -11.6836 -18.1322 -4.54542 1.70755e-06 8.53774e-07 0 -140.135 -50.4912 -106.123 0.489684 7.53363 0.279765 -0.144703 4.13113 -0.298707 2.56132e-06 2.98821e-06 0 
8.39577 15.3443 -1.06139 -3.46804 28.6194 21.647 -19.7189 0.0117903 0.0395647 4.26887e-07 4.26887e-07 0 0.18148 -0.205091 -6.81441 1.02694 32.3138 -0.877589 -1.40976 0.525821 0.111906 1.70755e-06 1.06722e-06 0 27.7182 -6.86622 -26.8339 -17.2763 0.792942 0 9.54166e-15 1.70755e-06 0 4.10661 20.7048 -22.2077 -0 0 0 -9.86843 -0.0847816 0.983565 -15.5502 4.59809 0.631798 -20.0208 5.8642 1.03702 -13.3211 3.95414 0.466461 -18.1782 3.57032 0.574711 -23.3914 4.53987 0.941276 -15.576 3.07401 0.420579 -20.7335 -2.02755 -0.364768 -26.6645 -2.56951 -0.610375 -17.7696 -1.74807 -0.274112 -22.739 -4.42056 -0.889108 -29.2727 -5.58539 -1.45855 -19.4803 -3.81578 -0.656107 1.70755e-06 1.06722e-06 0 3.83833 0.54383 51.6943 -5.36002 -0.550246 11.7139 -1.70755e-06 2.34788e-06 0 -4.10661 20.7048 22.2077 -0 0 0 11.126 0.107696 1.10357 17.5421 5.16676 -0.799169 22.5936 6.57477 -1.31341 15.0253 4.44715 -0.588172 20.5021 4.00693 -0.724154 26.3873 5.07951 -1.1909 17.5656 3.45416 -0.532289 23.3786 -2.27233 0.469805 30.0682 -2.86829 0.769227 20.036 -1.96225 0.347179 25.6506 -4.94813 1.12673 33.0311 -6.22175 1.84647 21.9718 -4.27946 0.833681 119.908 -28.9976 147.674 -0.635014 38.248 -0.265408 -7.13448 -18.7467 -2.79155 1.01778e-13 -3.41509e-06 0 -141.648 -50.0235 -108.067 0.501943 8.89526 0.495744 0.64472 4.03115 -0.551073 -8.53774e-07 -3.41509e-06 0 
8.56881 16.0407 -0.714972 -3.9 29.6477 21.2231 -19.2665 0.0103633 0 4.26887e-07 2.13443e-07 0 -0.193365 -0.181052 -7.79424 1.99865 31.8565 -1.70406 -2.62269 0.523915 -0.201741 4.26887e-07 1.70755e-06 0 29.2152 -6.34849 -24.2556 -18.1579 0.243161 0.0395647 6.4033e-07 -1.70755e-06 0 4.10661 20.7048 -22.2077 -0 0 0 -9.77315 -0.0831562 0.97075 -15.3994 4.55477 0.612934 -19.8262 5.80986 1.01567 -13.1921 3.91664 0.449369 -18.0022 3.537 0.558129 -23.1646 4.49846 0.923649 -15.4253 3.04505 0.413068 -20.5332 -2.00882 -0.362616 -26.4067 -2.54649 -0.596103 -17.5979 -1.73173 -0.265408 -22.5186 -4.38011 -0.873119 -28.9883 -5.53618 -1.43256 -19.2917 -3.78035 -0.644067 4.26887e-07 1.70755e-06 0 1.13753 0.239435 52.7396 -1.39413 -0.153136 12.5362 1.70755e-06 -1.4941e-06 0 -4.10661 20.7048 22.2077 -0 0 0 11.2955 0.110993 1.12186 17.8109 5.24295 -0.818522 22.941 6.66958 -1.35506 15.2552 4.51332 -0.602632 20.8155 4.06529 -0.747554 26.7915 5.15123 -1.22779 17.8339 3.50509 -0.551073 23.7352 -2.30497 0.482949 30.5271 -2.90782 0.790305 20.3416 -1.99089 0.356082 26.0435 -5.0183 1.16027 33.5384 -6.30555 1.9016 22.3078 -4.34137 0.855917 119.557 -27.4583 150.077 -0.618775 39.3359 0.237388 -2.41084 -19.493 -0.903949 3.41509e-06 9.39151e-06 0 -142.894 -49.6878 -110.049 0.511324 9.50078 0.701089 1.219 3.96295 -0.708861 3.41509e-06 5.97642e-06 0 
8.79673 16.5046 -0.43918 -3.92534 30.5924 20.4745 -18.8477 0.00646963 0 -1.70755e-06 -1.4941e-06 0 -0.768644 -0.11479 -8.84107 2.72849 30.8887 -2.31956 -3.86463 1.35132 -0.259443 3.20165e-06 -8.32429e-06 0 30.5927 -5.54785 -20.612 -19.053 0.292998 -1.74625 -0 0 0 4.10661 20.7048 -22.2077 -0 0 0 -9.67074 -0.0814265 0.962653 -15.2373 4.50818 0.603929 -19.617 5.75139 0.99543 -13.0534 3.87631 0.442347 -17.8131 3.50114 0.549651 -22.9208 4.45388 0.903949 -15.2633 3.0139 0.407344 -20.3178 -1.98867 -0.353877 -26.1296 -2.52169 -0.585504 -17.4134 -1.71415 -0.265408 -22.2817 -4.33656 -0.854086 -28.6827 -5.48312 -1.40274 -19.0889 -3.74222 -0.628071 3.20165e-06 -8.32429e-06 0 -1.6788 -0.213762 54.3569 2.54882 0.298625 13.3625 1.70755e-06 -4.16215e-06 0 -4.10661 20.7048 22.2077 -0 0 0 11.4676 0.11439 1.13848 18.0839 5.3202 -0.845798 23.2938 6.76559 -1.39659 15.4886 4.58042 -0.624321 21.1338 4.12443 -0.770244 27.202 5.22379 -1.26422 18.1064 3.55673 -0.566481 24.0973 -2.33802 0.498892 30.9931 -2.94776 0.820432 20.6518 -2.01992 0.364768 26.4424 -5.08931 1.19549 34.0536 -6.39014 1.95917 22.6491 -4.40407 0.882037 119.066 -25.8202 151.974 -0.598883 40.6513 0.844872 2.02397 -20.4247 1.06752 3.41509e-06 -5.12264e-06 0 -143.905 -49.5223 -111.955 0.51532 9.36084 0.805995 1.4984 3.8299 -0.788322 1.70755e-06 2.98821e-06 0 
9.11352 16.6669 -0.242651 -3.45765 31.3604 19.3397 -18.4945 -0.000355845 0.0395647 -1.70755e-06 1.70755e-06 0 -1.55536 0.0072848 -9.87537 2.99598 29.4751 -2.53435 -4.93674 3.00764 -0.268341 -2.13443e-07 -2.13443e-07 0 31.8349 -4.62338 -16.618 -20.1372 0.725315 -4.08344 -6.4033e-07 5.98839e-15 0 4.10661 20.7048 -22.2077 -0 0 0 -9.5692 -0.0797295 0.952025 -15.0767 4.46195 0.585504 -19.4096 5.69335 0.973165 -12.9159 3.8363 0.435212 -17.6256 3.46555 0.535222 -22.6792 4.4096 0.884695 -15.1028 2.983 0.399584 -20.1043 -1.96865 -0.351659 -25.8549 -2.49705 -0.571981 -17.2305 -1.6967 -0.253338 -22.0469 -4.29331 -0.836493 -28.3797 -5.43037 -1.37399 -18.8879 -3.70437 -0.61421 -2.13443e-07 -2.13443e-07 0 -4.47509 -0.700139 56.5653 5.88702 0.71112 13.7635 -3.41509e-06 -3.41509e-06 0 -4.10661 20.7048 22.2077 -0 0 0 11.6201 0.117441 1.15282 18.3257 5.38851 -0.871324 23.6063 6.8504 -1.43256 15.6954 4.63979 -0.639188 21.4157 4.1767 -0.791295 27.5656 5.28782 -1.29843 18.3477 3.60239 -0.585504 24.418 -2.3672 0.509756 31.4058 -2.98296 0.839296 20.9266 -2.04557 0.381548 26.7958 -5.15199 1.22906 34.51 -6.46462 2.00966 22.9514 -4.45947 0.905679 118.593 -24.081 153.046 -0.598796 42.3453 1.14738 5.99916 -21.4379 3.05247 -0 0 0 -144.673 -49.5887 -113.761 0.512535 8.46295 0.781341 1.46424 3.62283 -0.734883 2.56132e-06 -2.13443e-07 0 
9.47788 16.5183 -0.122375 -2.49095 31.8717 17.7964 -18.2487 -0.0107381 0.0395647 -4.26887e-07 -1.70755e-06 0 -2.5103 0.186658 -10.8031 2.64663 27.7407 -2.22658 -5.6429 5.35878 -0.205584 -4.26887e-07 -2.13443e-07 0 32.9117 -3.77117 -13.211 -21.4561 1.01337 -5.34494 -8.53774e-07 1.70755e-06 0 4.10661 20.7048 -22.2077 -0 0 0 -9.47355 -0.078147 0.942107 -14.9253 4.41835 0.580133 -19.2143 5.63859 0.957762 -12.7864 3.79859 0.424284 -17.4489 3.43199 0.527859 -22.4516 4.36781 0.866821 -14.9515 2.95386 0.393664 -19.9032 -1.94977 -0.34264 -25.5961 -2.47378 -0.563711 -17.0581 -1.68024 -0.256409 -21.8257 -4.2525 -0.820432 -28.0944 -5.38053 -1.34753 -18.6986 -3.66867 -0.602632 -4.26887e-07 -2.13443e-07 0 -6.89214 -1.28282 59.2902 8.36 0.980805 13.3595 3.41509e-06 -3.26168e-06 0 -4.10661 20.7048 22.2077 -0 0 0 11.738 0.119828 1.16565 18.5128 5.4413 -0.888227 23.8483 6.91589 -1.4623 15.8555 4.68569 -0.654913 21.6339 4.21707 -0.804051 27.847 5.33722 -1.32291 18.5345 3.63768 -0.594788 24.6661 -2.38974 0.524885 31.7252 -3.0101 0.854086 21.1392 -2.06539 0.381548 27.0692 -5.20036 1.25115 34.8633 -6.52197 2.04939 23.1853 -4.50225 0.926188 118.194 -22.3076 153.059 -0.609308 44.2857 1.32173 9.21003 -22.2846 4.81556 3.41509e-06 -1.70755e-06 0 -145.084 -49.9861 -115.623 0.502872 6.63937 0.612934 1.15821 3.5363 -0.582825 8.53774e-07 3.41509e-06 0 
9.77283 16.1071 -0.0671579 -1.11633 32.0837 15.8882 -18.155 -0.0227251 0 2.13443e-06 -2.39536e-14 0 -3.53821 0.403312 -11.5359 1.67401 25.8505 -1.39827 -5.86125 8.14271 0 -2.13443e-07 -3.20165e-07 0 33.8178 -3.04586 -10.4762 -22.8914 1.14313 -5.64156 -3.18055e-15 1.70755e-06 0 4.10661 20.7048 -22.2077 -0 0 0 -9.39549 -0.0768673 0.9346 -14.8019 4.38276 0.573347 -19.055 5.59386 0.938778 -12.6807 3.7678 0.420579 -17.3048 3.40457 0.521894 -22.2659 4.33365 0.851332 -14.8281 2.93006 0.377423 -19.739 -1.93435 -0.335718 -25.3849 -2.45475 -0.552491 -16.9175 -1.6668 -0.250229 -21.6452 -4.21915 -0.807935 -27.8615 -5.33977 -1.32528 -18.5441 -3.6395 -0.594788 -2.13443e-07 -3.20165e-07 0 -8.5893 -2.00805 62.3496 9.96489 1.04819 11.9795 -0 0 0 -4.10661 20.7048 22.2077 -0 0 0 11.8045 0.121185 1.17168 18.6184 5.47104 -0.897868 23.9847 6.95276 -1.47774 15.9457 4.71155 -0.660861 21.7569 4.23981 -0.814688 28.0057 5.36502 -1.33996 18.6398 3.65756 -0.598723 24.8061 -2.40242 0.527859 31.9053 -3.02536 0.865013 21.259 -2.07655 0.389667 27.2234 -5.22757 1.26669 35.0625 -6.5542 2.07255 23.3172 -4.52634 0.933763 117.832 -20.6291 151.971 -0.600209 46.1162 1.82943 11.3265 -22.8214 6.05319 3.41509e-06 1.70755e-06 0 -144.663 -50.9674 -117.537 0.488333 3.16667 0.353877 0.679235 4.15187 -0.333378 -8.53774e-07 -1.27222e-14 0 
9.86674 15.5243 -0.0558143 0.491222 32.0061 13.7365 -18.2418 -0.034905 0.0559529 4.26887e-07 -1.70755e-06 0 -4.51991 0.623676 -12.0211 0.23351 23.9725 -0.193827 -5.5914 11.0223 0.0969133 4.26887e-07 2.13443e-07 0 34.5318 -2.44983 -8.34164 -24.2117 1.15042 -5.35957 1.92099e-06 -1.60083e-06 0 4.10661 20.7048 -22.2077 -0 0 0 -9.33099 -0.0758179 0.932085 -14.6999 4.35334 0.558129 -18.9234 5.55688 0.926188 -12.5935 3.74236 0.411168 -17.1858 3.38191 0.509756 -22.1125 4.3054 0.840228 -14.7261 2.9104 0.375344 -19.6034 -1.9216 -0.338041 -25.2104 -2.439 -0.543925 -16.8013 -1.65569 -0.243893 -21.496 -4.19156 -0.795242 -27.6692 -5.30602 -1.30684 -18.4165 -3.61539 -0.582825 4.26887e-07 2.13443e-07 0 -9.3659 -2.83933 65.4887 10.8033 0.924516 9.75377 3.41509e-06 -2.66807e-08 0 -4.10661 20.7048 22.2077 -0 0 0 11.8266 0.121639 1.17302 18.6535 5.48093 -0.898739 24.0301 6.96503 -1.48303 15.9757 4.72015 -0.662045 21.7979 4.24737 -0.816608 28.0585 5.37426 -1.34346 18.6748 3.66418 -0.602632 24.8526 -2.40664 0.530816 31.9652 -3.03043 0.867723 21.2989 -2.08026 0.387653 27.2748 -5.23662 1.2704 35.1288 -6.56491 2.07972 23.3611 -4.53435 0.940444 117.45 -19.2145 150.001 -0.605663 47.4095 1.99088 12.7419 -22.8017 6.67026 1.02453e-05 8.53774e-06 0 -143.882 -52.5372 -119.982 0.476121 -1.28073 0.0559529 0.136351 5.34453 0.0791294 -1.70755e-06 -3.41509e-06 0 
9.69151 14.884 -0.0550661 2.11759 31.7031 11.5221 -18.5011 -0.0456578 0 8.53774e-07 1.54058e-15 0 -5.35026 0.811977 -12.2616 -1.41242 22.2536 1.16229 -4.95652 13.6636 0.201741 1.92099e-06 -7.15625e-15 0 35.0293 -1.94916 -6.63601 -25.1753 1.12511 -5.03555 -8.53774e-07 -1.06722e-07 0 4.10661 20.7048 -22.2077 -0 0 0 -9.28346 -0.075049 0.927033 -14.6247 4.33165 0.555317 -18.8264 5.52959 0.916845 -12.5291 3.72359 0.407344 -17.098 3.3652 0.505128 -21.9994 4.28456 0.83462 -14.6509 2.89589 0.373253 -19.5035 -1.91219 -0.328649 -25.0818 -2.42738 -0.539591 -16.7156 -1.6475 -0.240663 -21.3861 -4.17121 -0.787329 -27.5274 -5.2811 -1.29481 -18.3224 -3.5976 -0.582825 1.92099e-06 -7.15625e-15 0 -9.76654 -3.45697 68.3978 10.9142 0.688055 7.19271 -7.30906e-13 -5.92305e-06 0 -4.10661 20.7048 22.2077 -0 0 0 11.8089 0.121276 1.17101 18.6254 5.47302 -0.897868 23.9938 6.95522 -1.47827 15.9517 4.71327 -0.659676 21.7651 4.24132 -0.813727 28.0163 5.36687 -1.34054 18.6468 3.65889 -0.601332 24.8154 -2.40327 0.530816 31.9173 -3.02638 0.865013 21.267 -2.07729 0.39762 27.2337 -5.22939 1.26793 35.0758 -6.55634 2.07369 23.326 -4.52794 0.936274 116.943 -18.105 147.457 -0.585704 47.9811 2.42126 13.2972 -22.4224 6.68902 -6.83019e-06 -1.70755e-06 0 -146.376 -53.3345 -125.507 0.459826 -1.28405 -0.301316 -0.381263 4.48226 0.301316 1.28066e-06 3.30837e-06 0 
9.27544 14.3042 -0.0245726 3.5691 31.2799 9.4521 -18.8941 -0.0528357 0 -8.53774e-07 -1.4941e-06 0 -5.96282 0.943729 -12.3015 -2.97031 20.8152 2.43737 -4.16081 15.7983 0.240663 2.24116e-06 3.41509e-06 0 35.2996 -1.5011 -5.17661 -25.6212 1.18183 -5.19368 -3.37934e-15 -1.81427e-06 0 4.10661 20.7048 -22.2077 -0 0 0 -9.25363 -0.0745684 0.921953 -14.5775 4.31803 0.552491 -18.7655 5.51246 0.911709 -12.4887 3.71182 0.411168 -17.0429 3.3547 0.503577 -21.9284 4.27147 0.825189 -14.6038 2.88679 0.366908 -19.4407 -1.90628 -0.328649 -25.0011 -2.42009 -0.536682 -16.6619 -1.64235 -0.240663 -21.3172 -4.15843 -0.782342 -27.4385 -5.26546 -1.28692 -18.2633 -3.58644 -0.576071 2.24116e-06 3.41509e-06 0 -9.89778 -3.85653 70.8043 10.5297 0.442378 4.79715 1.70755e-06 -6.4033e-07 0 -4.10661 20.7048 22.2077 -0 0 0 11.7653 0.120385 1.167 18.5562 5.45353 -0.889108 23.9044 6.93106 -1.46924 15.8926 4.69632 -0.656107 21.6845 4.22642 -0.811801 27.9122 5.34865 -1.33058 18.5777 3.64586 -0.597414 24.7237 -2.39496 0.524885 31.7992 -3.01638 0.857744 21.1884 -2.06998 0.387653 27.1326 -5.21155 1.25801 34.9452 -6.53523 2.05853 23.2395 -4.51216 0.927877 116.295 -17.3068 144.744 -0.560625 47.8549 2.79688 13.3863 -21.7802 6.35375 5.08889e-14 1.70755e-06 0 -148.926 -54.2353 -130.962 0.449417 -1.2861 -0.567861 -0.845005 3.97266 0.532289 2.38542e-15 -1.60083e-07 0 
8.70741 13.8881 0.0690978 4.72011 30.8588 7.71495 -19.3792 -0.0561949 0 -0 -1.06722e-07 0 -6.32938 1.00871 -12.1879 -4.17231 19.7686 3.41073 -3.4285 17.244 0.250229 -1.65419e-06 3.41509e-06 0 35.3519 -1.08583 -3.86742 -25.5051 1.40454 -6.19992 -2.13443e-07 1.70755e-06 0 4.10661 20.7048 -22.2077 -0 0 0 -9.24305 -0.0743985 0.921104 -14.5608 4.3132 0.548225 -18.7439 5.50639 0.91085 -12.4744 3.70764 0.405418 -17.0234 3.35098 0.497321 -21.9033 4.26683 0.826137 -14.5871 2.88356 0.375344 -19.4185 -1.90419 -0.326259 -24.9725 -2.4175 -0.536682 -16.6428 -1.64053 -0.240663 -21.2927 -4.1539 -0.781341 -27.4069 -5.2599 -1.28327 -18.2424 -3.58248 -0.577428 -1.65419e-06 3.41509e-06 0 -9.86322 -4.05191 72.4792 9.90774 0.261327 3.01532 1.78906e-15 6.4033e-07 0 -4.10661 20.7048 22.2077 -0 0 0 11.7128 0.119316 1.16229 18.4728 5.43002 -0.882037 23.7966 6.90191 -1.45586 15.8213 4.67588 -0.64891 21.5873 4.20845 -0.801125 27.7869 5.32668 -1.31817 18.4946 3.63015 -0.592151 24.6131 -2.38493 0.520393 31.657 -3.00431 0.850413 21.0937 -2.06116 0.385629 27.0108 -5.19003 1.24614 34.7878 -6.50974 2.04058 23.1353 -4.49312 0.918551 115.542 -16.8014 142.208 -0.538158 47.2123 3.03447 13.2258 -21.0485 5.89167 -2.54444e-14 1.70755e-06 0 -151.313 -55.1123 -135.629 0.442271 -1.28747 -0.742301 -1.28339 3.86247 0.694358 -2.40124e-06 -1.35336e-05 0 
8.07376 13.708 0.236204 5.53129 30.5463 6.44248 -19.9404 -0.055762 0.0395647 -6.4033e-07 1.92099e-06 0 -6.44505 1.00383 -11.9304 -4.81159 19.2296 3.92608 -2.94306 17.8907 0.237388 7.95077e-06 5.76297e-06 0 35.2101 -0.728023 -2.75827 -24.8869 1.80056 -8.14685 -2.13443e-07 0 0 4.10661 20.7048 -22.2077 -0 0 0 -9.25458 -0.0745837 0.921953 -14.579 4.31847 0.551073 -18.7674 5.51301 0.91085 -12.49 3.7122 0.40926 -17.0447 3.35504 0.50202 -21.9307 4.27189 0.828974 -14.6053 2.88708 0.373253 -19.4427 -1.90647 -0.331022 -25.0037 -2.42032 -0.538138 -16.6636 -1.64252 -0.234068 -21.3194 -4.15884 -0.783342 -27.4413 -5.26595 -1.28814 -18.2652 -3.58679 -0.577428 7.95077e-06 5.76297e-06 0 -9.73625 -4.05795 73.2377 9.27989 0.173537 2.13835 -1.70755e-06 8.53774e-07 0 -4.10661 20.7048 22.2077 -0 0 0 11.6658 0.118364 1.15824 18.3983 5.40898 -0.877589 23.7001 6.87581 -1.44507 15.7575 4.65759 -0.641632 21.5003 4.19236 -0.798189 27.6747 5.30699 -1.30923 18.4201 3.61608 -0.585504 24.5142 -2.37595 0.520393 31.5297 -2.9935 0.844872 21.009 -2.05326 0.377423 26.9018 -5.17076 1.23794 34.647 -6.48688 2.02634 23.0421 -4.47607 0.911709 114.736 -16.6097 140.071 -0.522797 46.2235 3.11266 12.8891 -20.3482 5.41884 1.02453e-05 5.12264e-06 0.0559529 -153.322 -55.8525 -139.024 0.438313 -1.2882 -0.839296 -1.71206 4.15275 0.805024 -8.00413e-07 3.39508e-06 0 
7.43156 13.79 0.456365 6.03745 30.4039 5.69556 -20.5966 -0.0516738 0.0395647 -8.53774e-07 1.70755e-06 0 -6.31275 0.928667 -11.4814 -4.76334 19.3116 3.88841 -2.80447 17.6806 0.205584 1.06722e-07 -3.25501e-06 0 34.9048 -0.497737 -2.05091 -23.9083 2.29328 -10.8007 6.4033e-07 1.06722e-07 0 4.10661 20.7048 -22.2077 -0 0 0 -9.28923 -0.0751421 0.925342 -14.6338 4.33428 0.558129 -18.8381 5.53291 0.919403 -12.5369 3.72587 0.411168 -17.1087 3.36723 0.506676 -22.0131 4.28709 0.833681 -14.6601 2.89766 0.377423 -19.5156 -1.91333 -0.333378 -25.0974 -2.4288 -0.539591 -16.726 -1.64849 -0.250229 -21.3995 -4.17368 -0.790305 -27.5446 -5.28413 -1.29541 -18.3338 -3.59976 -0.580133 1.06722e-07 -3.25501e-06 0 -9.55177 -3.88242 72.9505 8.80096 0.174653 2.26803 3.41509e-06 2.56132e-06 0 -4.10661 20.7048 22.2077 -0 0 0 11.6344 0.117729 1.15621 18.3484 5.39492 -0.872222 23.6357 6.85836 -1.43692 15.7149 4.64536 -0.640411 21.4422 4.1816 -0.790305 27.5998 5.29382 -1.30084 18.3704 3.60668 -0.577428 24.4481 -2.36994 0.515861 31.4446 -2.98626 0.841159 20.9524 -2.04798 0.373253 26.829 -5.15787 1.2297 34.5529 -6.47159 2.01472 22.9798 -4.46467 0.908268 113.911 -16.7904 138.401 -0.515843 44.9845 3.0218 12.3059 -19.7283 4.94011 -3.41509e-06 -2.56132e-05 0 -154.794 -56.3871 -140.949 0.436902 -1.28847 -0.874014 -2.10708 4.80606 0.865917 -1.06722e-07 -3.38841e-06 0 
6.83366 14.0977 0.686141 6.31916 30.4328 5.4636 -21.3881 -0.0439655 0 8.53774e-07 -1.06722e-07 0 -5.93792 0.786784 -10.7575 -3.99772 20.0912 3.27204 -3.01031 16.6052 0.193827 -4.64239e-06 -2.56132e-06 0 34.4692 -0.490251 -2.05473 -22.7763 2.75653 -13.6236 -4.26887e-07 1.70755e-06 0 4.10661 20.7048 -22.2077 -0 0 0 -9.3567 -0.0762353 0.932924 -14.7405 4.36507 0.566481 -18.9758 5.57162 0.930404 -12.6282 3.7525 0.41684 -17.2332 3.39095 0.514341 -22.1736 4.31667 0.844872 -14.7668 2.91824 0.377423 -19.6575 -1.92668 -0.335718 -25.28 -2.44528 -0.552491 -16.8476 -1.66012 -0.250229 -21.5555 -4.20256 -0.798189 -27.7458 -5.31948 -1.31698 -18.4673 -3.625 -0.589501 -4.64239e-06 -2.56132e-06 0 -9.30951 -3.53056 71.5805 8.52677 0.246294 3.30323 1.70755e-06 -8.53774e-07 0 -4.10661 20.7048 22.2077 -0 0 0 11.6119 0.117276 1.15418 18.3127 5.38484 -0.868625 23.5895 6.84585 -1.43037 15.6843 4.6366 -0.639188 21.4006 4.17389 -0.790305 27.5461 5.28439 -1.29541 18.3348 3.59994 -0.577428 24.4008 -2.36564 0.508218 31.3837 -2.98108 0.837428 20.9118 -2.04419 0.377423 26.7768 -5.14863 1.22523 34.4855 -6.46063 2.00771 22.9351 -4.4565 0.904815 113.11 -17.382 137.137 -0.518017 43.603 2.7628 11.3201 -19.2202 4.39996 1.01778e-13 3.41509e-06 0 -158.847 -54.3016 -144.016 0.439688 4.93841 -0.898739 -2.33668 2.51726 0.672601 -1.06722e-07 -6.80351e-06 0 
6.35508 14.5217 0.876265 6.47128 30.5764 5.68139 -22.3463 -0.0333684 0.068528 8.53774e-07 -1.70755e-06 0 -5.33645 0.594203 -9.68864 -2.58924 21.5592 2.12992 -3.45903 14.7255 0.176939 -6.61674e-06 -2.4546e-06 0 33.9351 -0.793173 -3.08157 -21.7383 3.06657 -15.8723 -8.53774e-07 -2.13443e-07 0 4.10661 20.7048 -22.2077 -0 0 0 -9.44893 -0.0777423 0.940444 -14.8864 4.40713 0.576071 -19.1641 5.62449 0.94873 -12.7531 3.78888 0.420579 -17.4035 3.42334 0.526374 -22.393 4.35704 0.861386 -14.9126 2.94635 0.381548 -19.8514 -1.94491 -0.34264 -25.5295 -2.46778 -0.55953 -17.0137 -1.676 -0.240663 -21.7687 -4.24199 -0.815648 -28.0209 -5.36768 -1.34113 -18.6499 -3.65947 -0.602632 -6.61674e-06 -2.4546e-06 0 -8.98421 -3.01724 69.2308 8.41876 0.364417 4.94866 6.37105e-14 1.70755e-06 0 -4.10661 20.7048 22.2077 -0 0 0 11.5988 0.117013 1.15282 18.292 5.379 -0.864108 23.5628 6.8386 -1.42818 15.6666 4.63152 -0.635504 21.3765 4.16942 -0.784341 27.5149 5.27891 -1.29239 18.3141 3.59604 -0.577428 24.3733 -2.36314 0.512817 31.3483 -2.97807 0.833681 20.8883 -2.042 0.375344 26.7465 -5.14327 1.22332 34.4464 -6.45426 2.00225 22.9093 -4.45176 0.903083 112.439 -18.3367 136.15 -0.529895 42.3074 2.3504 9.74946 -18.9043 3.73939 3.41509e-06 -6.83019e-06 0 -160.513 -53.2187 -144.507 0.44635 7.91959 -0.818522 -2.4105 2.05172 0.532289 -5.08889e-14 6.83019e-06 0 
6.06863 14.8879 0.985835 6.57731 30.74 6.25087 -23.4609 -0.0218022 0 8.53774e-07 3.73526e-06 0 -4.55228 0.383887 -8.26295 -0.722379 23.5866 0.597414 -3.97486 12.2021 0.0969133 3.41509e-06 -1.81427e-06 0 33.3281 -1.45522 -5.34977 -21.0228 3.13306 -16.7691 -3.18055e-15 1.70755e-06 0 4.10661 20.7048 -22.2077 -0 0 0 -9.56199 -0.0796096 0.952847 -15.0653 4.45866 0.58684 -19.3949 5.68922 0.972361 -12.9061 3.83346 0.437006 -17.6123 3.46302 0.542484 -22.662 4.40645 0.881149 -15.0913 2.9808 0.395647 -20.0891 -1.96723 -0.34264 -25.8353 -2.49529 -0.571981 -17.2175 -1.69545 -0.256409 -22.0302 -4.29024 -0.83462 -28.3582 -5.42661 -1.37228 -18.8736 -3.70167 -0.616753 3.41509e-06 -1.81427e-06 0 -8.53674 -2.37473 66.174 8.361 0.495798 6.77487 1.70755e-06 -4.26887e-06 0 -4.10661 20.7048 22.2077 -0 0 0 11.5844 0.116724 1.15079 18.2692 5.37256 -0.865917 23.5333 6.83061 -1.42379 15.6471 4.62593 -0.639188 21.3499 4.1645 -0.783342 27.4807 5.27288 -1.29057 18.2913 3.59173 -0.58148 24.3431 -2.36039 0.509756 31.3094 -2.97475 0.835557 20.8624 -2.03958 0.377423 26.7132 -5.13737 1.22011 34.4034 -6.44725 1.99716 22.8808 -4.44654 0.900479 112.044 -19.5198 135.313 -0.552111 41.3909 1.81008 7.44924 -18.8925 2.89019 3.41509e-06 -3.41509e-06 0 -160.947 -52.5007 -143.642 0.454608 9.45716 -0.678394 -2.26726 2.30138 0.393664 -1.74757e-06 -1.30204e-14 0 
5.98329 14.9979 0.986509 6.6877 30.8184 7.06649 -24.6551 -0.0113247 0 2.13443e-07 3.41509e-06 0 -3.67038 0.197708 -6.55599 1.31587 25.926 -1.09859 -4.35119 9.31436 0 7.95139e-16 -1.06722e-07 0 32.6615 -2.46904 -8.91168 -20.7573 2.89223 -15.6964 -8.53774e-07 1.59028e-14 0 4.10661 20.7048 -22.2077 -0 0 0 -9.68391 -0.081648 0.963466 -15.2582 4.51417 0.603929 -19.6439 5.75892 1.00092 -13.0712 3.88149 0.445872 -17.8374 3.50575 0.553906 -22.9522 4.45962 0.905679 -15.2841 3.01791 0.403482 -20.3455 -1.99126 -0.356082 -26.1652 -2.52488 -0.58148 -17.4371 -1.71641 -0.256409 -22.3122 -4.34217 -0.856831 -28.722 -5.48995 -1.40664 -19.115 -3.74713 -0.634271 7.95139e-16 -1.06722e-07 0 -6.8414 -2.20289 62.86 8.35622 0.59449 8.12432 1.70755e-06 7.47052e-07 0 -4.10661 20.7048 22.2077 -0 0 0 11.5606 0.116247 1.14943 18.2314 5.36189 -0.860477 23.4845 6.81737 -1.41828 15.6148 4.61666 -0.635504 21.3058 4.15633 -0.782342 27.4238 5.26288 -1.28449 18.2536 3.5846 -0.577428 24.293 -2.35584 0.505128 31.2449 -2.96926 0.828029 20.8194 -2.03557 0.369035 26.658 -5.12758 1.21497 34.3321 -6.43563 1.99049 22.8335 -4.43789 0.895249 112.024 -20.7785 134.532 -0.582603 40.9792 1.1909 4.34913 -19.212 1.75519 1.70755e-06 -3.41509e-06 0 -160.565 -51.9288 -141.997 0.462375 10.1272 -0.511289 -1.95282 2.80388 0.279765 -0 -6.83352e-06 0 
6.01235 14.7049 0.861686 6.80247 30.7257 8.02986 -25.7884 -0.00375023 0.0559529 -0 -1.70755e-06 0 -2.80336 0.0676068 -4.70686 3.17943 28.2499 -2.67909 -4.41623 6.44584 0.125115 2.13443e-07 2.13443e-07 0 31.9338 -3.76986 -13.6297 -20.9114 2.29197 -12.3732 7.68396e-06 5.97642e-06 0 4.10661 20.7048 -22.2077 -0 0 0 -9.79937 -0.0836018 0.975575 -15.4409 4.56669 0.618021 -19.8797 5.82482 1.02335 -13.2276 3.92695 0.451107 -18.0506 3.54617 0.565097 -23.227 4.50986 0.927033 -15.4667 3.05302 0.41684 -20.5883 -2.01398 -0.369035 -26.4776 -2.55283 -0.601332 -17.6452 -1.73623 -0.276953 -22.5792 -4.39125 -0.877589 -29.0666 -5.54973 -1.43964 -19.3436 -3.7901 -0.645281 2.13443e-07 2.13443e-07 0 -5.97555 -1.54674 59.6557 7.88738 0.617846 8.9438 -0 0 0 -4.10661 20.7048 22.2077 -0 0 0 11.5214 0.115461 1.14533 18.1692 5.3443 -0.855917 23.404 6.79553 -1.40942 15.5616 4.60137 -0.626823 21.2333 4.14288 -0.776317 27.3302 5.2464 -1.2747 18.1915 3.57284 -0.571981 24.2104 -2.34832 0.503577 31.1387 -2.96019 0.826137 20.7487 -2.02897 0.373253 26.567 -5.11144 1.20916 34.2146 -6.41645 1.97707 22.7557 -4.42362 0.889108 115.874 -54.1976 56.421 -0.623048 39.8015 0.247081 3.85005 -15.6674 0.131221 -6.61674e-06 2.56132e-06 0 -159.719 -51.4262 -139.993 0.467782 10.2387 -0.389667 -1.60296 3.29776 0.185575 -1.54746e-06 1.38338e-05 0 
6.01502 14.0065 0.608786 6.86805 30.4147 9.06198 -26.6909 -0.000142827 0.0395647 -1.28066e-06 3.41509e-06 0 -2.05418 0.00266448 -2.86517 4.55185 30.2066 -3.86114 -4.09931 4.02055 -0.167859 -3.20165e-06 6.4033e-07 0 31.1354 -5.24433 -19.1831 -21.3041 1.31405 -6.97816 4.73108e-14 -3.62854e-06 0 4.10661 20.7048 -22.2077 -0 0 0 -9.89202 -0.0851865 0.984361 -15.5875 4.60881 0.633036 -20.069 5.87763 1.04229 -13.353 3.96341 0.463093 -18.2218 3.57857 0.573347 -23.4475 4.55011 0.942938 -15.6133 3.08117 0.422435 -20.7831 -2.03218 -0.369035 -26.7283 -2.5752 -0.612934 -17.8121 -1.75211 -0.271242 -22.7936 -4.43057 -0.896123 -29.3431 -5.59756 -1.46551 -19.527 -3.82455 -0.660861 -3.20165e-06 6.4033e-07 0 -4.70573 -1.0192 56.9632 6.94312 0.538721 8.86284 1.70755e-06 -5.33608e-07 0 -4.10661 20.7048 22.2077 -0 0 0 11.4657 0.114351 1.13779 18.0808 5.31933 -0.847647 23.2898 6.7645 -1.39659 15.486 4.57966 -0.623066 21.1302 4.12376 -0.769227 27.1973 5.22297 -1.26484 18.1033 3.55615 -0.565097 24.0932 -2.33764 0.497321 30.9878 -2.94731 0.815648 20.6483 -2.01959 0.37115 26.4379 -5.08851 1.19614 34.0478 -6.38918 1.95838 22.6452 -4.40336 0.882037 115.794 -55.7872 54.4055 -0.604819 39.8748 0.594788 4.03942 -17.4932 0.111906 -5.76297e-06 -5.97642e-06 0 -158.669 -51.0557 -137.904 0.469484 9.93825 -0.34264 -1.36994 3.6691 0.153233 -0 0 0 
5.88204 13.1092 0.244574 6.79914 29.8832 10.1082 -27.2135 0.000626598 0.0395647 -1.70755e-06 1.70755e-06 0 -1.47819 -0.0106193 -1.15959 5.2456 31.4866 -4.46934 -3.46314 2.40185 -0.189746 1.28066e-06 -3.41509e-06 0 30.2586 -6.74427 -25.1063 -21.684 0.0274637 -0.142652 -2.13443e-07 -1.06722e-07 0 4.10661 20.7048 -22.2077 -0 0 0 -9.95873 -0.0863365 0.99228 -15.6931 4.63912 0.639188 -20.2053 5.91563 1.05424 -13.4434 3.98966 0.46478 -18.345 3.60188 0.58148 -23.6063 4.57905 0.956945 -15.7188 3.10143 0.422435 -20.9234 -2.04528 -0.377423 -26.9088 -2.59128 -0.618021 -17.9324 -1.76354 -0.279765 -22.9479 -4.45884 -0.905679 -29.5423 -5.63191 -1.48461 -19.6591 -3.84933 -0.670269 1.28066e-06 -3.41509e-06 0 -3.15339 -0.633729 54.9372 5.43036 0.380831 8.01727 -3.47873e-14 -1.06722e-06 0 -4.10661 20.7048 22.2077 -0 0 0 11.3841 0.112734 1.13158 17.9514 5.28271 -0.835557 23.1225 6.719 -1.37627 15.3753 4.54785 -0.610375 20.9793 4.09574 -0.756918 27.0027 5.18859 -1.24676 17.9741 3.53167 -0.55953 23.9215 -2.32198 0.489388 30.7668 -2.92839 0.807935 20.5012 -2.00583 0.360452 26.2487 -5.05487 1.17967 33.8034 -6.34913 1.93141 22.4834 -4.37365 0.874014 115.113 -57.065 51.5623 -0.603318 38.7182 0.437006 4.57461 -16.4019 0.321425 4.26887e-06 1.70755e-06 0.0559529 -157.448 -50.9949 -135.804 0.467487 9.24089 -0.369035 -1.35247 3.88161 0.197823 -2.77476e-06 -3.20165e-06 0 
5.59691 12.3947 -0.194015 6.52171 29.1715 11.1394 -27.2736 -0.000103511 0.0395647 4.26887e-07 1.4941e-06 0 -1.07545 0.0046812 0.298707 5.25361 31.8914 -4.48194 -2.67325 1.79343 -0.158259 8.53774e-07 -5.76297e-06 0 29.5635 -7.57381 -27.4892 -21.8349 1.49988 0.0559529 5.33608e-07 3.36173e-06 0.0559529 4.10661 20.7048 -22.2077 -0 0 0 -9.99264 -0.0869239 0.993069 -15.7467 4.65451 0.642851 -20.2746 5.93492 1.06237 -13.4893 4.00299 0.474777 -18.4076 3.61372 0.58684 -23.6871 4.59374 0.964278 -15.7724 3.11173 0.429783 -20.9947 -2.05193 -0.379491 -27.0006 -2.59944 -0.624321 -17.9934 -1.76935 -0.271242 -23.0264 -4.4732 -0.91085 -29.6435 -5.64935 -1.49616 -19.7263 -3.86191 -0.671436 8.53774e-07 -5.76297e-06 0 -1.5907 -0.324285 53.5531 3.41109 0.202417 6.79 1.70755e-06 1.06722e-07 0 -4.10661 20.7048 22.2077 -0 0 0 11.2858 0.110803 1.12046 17.7956 5.23861 -0.820432 22.9211 6.66417 -1.35159 15.2421 4.50954 -0.605224 20.7976 4.06197 -0.745457 26.7684 5.14714 -1.22523 17.8186 3.50219 -0.546795 23.7149 -2.30311 0.484567 30.5009 -2.90556 0.794257 20.3241 -1.98926 0.356082 26.021 -5.0143 1.15959 33.5094 -6.30078 1.8983 22.2886 -4.33784 0.855917 113.779 -57.9424 48.1878 -0.601491 36.7771 0.137056 5.37107 -15.0082 0.574711 -4.26887e-06 6.36111e-14 0 -155.886 -51.4222 -133.572 0.463371 8.17626 -0.407344 -1.56873 3.85706 0.274112 8.53774e-07 3.41509e-06 0 
5.23246 12.2458 -0.658325 6.01612 28.3516 12.1401 -26.8805 -0.00147687 0 -1.70755e-06 1.92099e-06 0 -0.804877 0.0291046 1.43583 4.71263 31.3858 -4.01363 -1.92479 2.18866 0.125115 1.28066e-06 -5.12264e-06 0 28.7885 -8.14557 -29.3115 -21.6495 2.92263 0.0395647 8.53774e-07 2.66804e-08 0 4.10661 20.7048 -22.2077 -0 0 0 -10.0018 -0.0870822 0.994644 -15.7612 4.65865 0.646493 -20.2932 5.94011 1.06311 -13.5017 4.00658 0.476422 -18.4244 3.6169 0.584166 -23.7088 4.59769 0.964278 -15.7868 3.11449 0.429783 -21.0139 -2.05372 -0.379491 -27.0252 -2.60163 -0.624321 -18.0099 -1.77091 -0.276953 -23.0475 -4.47706 -0.911709 -29.6708 -5.65403 -1.49773 -19.7443 -3.8653 -0.674924 1.28066e-06 -5.12264e-06 0 -0.309327 -0.0363335 52.6974 1.1475 0.0562881 5.61638 -3.41509e-06 2.98821e-06 0 -4.10661 20.7048 22.2077 -0 0 0 11.1731 0.108608 1.11064 17.6169 5.18795 -0.805995 22.6901 6.60115 -1.32587 15.0892 4.46555 -0.590827 20.5892 4.02316 -0.732749 26.4996 5.09947 -1.20332 17.6402 3.46832 -0.539591 23.4777 -2.28141 0.474777 30.1957 -2.8793 0.77833 20.1209 -1.97021 0.351659 25.7598 -4.96766 1.13641 33.1721 -6.24509 1.86208 22.0652 -4.29669 0.837428 104.633 -53.6611 38.1168 -0.493745 25.4623 0.875804 5.74896 -11.0462 -0.449369 -0.0119264 -0.801884 -1.70084 -153.749 -52.3985 -130.972 0.458813 6.85063 -0.4614 -1.97559 3.48342 0.338041 2.77476e-06 -2.42792e-05 0 
4.89667 12.7961 -1.1017 5.33739 27.5094 13.0915 -26.1329 -0.00290625 0.0395647 -4.26887e-07 -1.70755e-06 0 -0.608495 0.0499118 2.16527 3.81698 30.1103 -3.23644 -1.3734 3.38073 0.068528 -2.62396e-14 -1.28066e-06 0 27.8867 -8.43795 -30.6044 -21.125 4.01461 0.0559529 -8.73784e-07 1.69421e-06 0 4.10661 20.7048 -22.2077 -0 0 0 -9.99652 -0.0869913 0.994644 -15.7529 4.65627 0.640411 -20.2825 5.93713 1.0609 -13.4946 4.00452 0.471468 -18.4148 3.61507 0.582825 -23.6963 4.59542 0.9659 -15.7785 3.1129 0.427958 -21.0029 -2.05269 -0.381548 -27.0111 -2.60037 -0.624321 -18.0004 -1.77002 -0.276953 -23.0354 -4.47484 -0.911709 -29.6551 -5.65134 -1.49825 -19.734 -3.86335 -0.670269 -2.62396e-14 -1.28066e-06 0 0.53407 0.177089 52.2568 -0.97638 -0.0410171 4.81019 3.41509e-06 -1.4941e-06 0 -4.10661 20.7048 22.2077 -0 0 0 11.0532 0.106295 1.09859 17.4266 5.13398 -0.787329 22.4444 6.53395 -1.29722 14.9265 4.41869 -0.576071 20.3674 3.98181 -0.71436 26.2136 5.04861 -1.17502 17.4503 3.43224 -0.52934 23.2253 -2.25828 0.46478 29.8709 -2.85125 0.763097 19.9047 -1.94992 0.340348 25.4818 -4.9179 1.11345 32.8131 -6.18558 1.82472 21.8274 -4.25281 0.820432 95.4011 -53.1961 -7.88099 -0.586775 25.0561 -1.21819 12.2826 -11.4235 0.142652 -19.3181 -41.2224 -48.6964 -150.822 -53.8419 -127.741 0.455133 5.22561 -0.508218 -2.49892 2.84135 0.349426 -0 0 0 
4.67081 13.7915 -1.48981 4.61066 26.7223 13.9468 -25.1988 -0.00378045 0 -0 0 0 -0.432724 0.0625156 2.47244 2.74494 28.3406 -2.31381 -1.10522 5.02366 0 4.26887e-07 3.41509e-06 0 26.8204 -8.44304 -31.3586 -20.2927 4.63934 0 -1.62751e-06 6.67011e-08 0 4.10661 20.7048 -22.2077 -0 0 0 -9.98776 -0.0868392 0.993857 -15.739 4.6523 0.646493 -20.2646 5.93214 1.05868 -13.4827 4.00107 0.476422 -18.3986 3.61201 0.585504 -23.6754 4.59163 0.963466 -15.7647 3.11024 0.4316 -20.9845 -2.05097 -0.375344 -26.9874 -2.59827 -0.626823 -17.9847 -1.76852 -0.268341 -23.0151 -4.47113 -0.908268 -29.629 -5.64684 -1.49407 -19.7166 -3.8601 -0.66793 4.26887e-07 3.41509e-06 0 0.915881 0.196959 52.1587 -2.61536 -0.102826 4.50198 -1.70755e-06 -1.70755e-06 0 -4.10661 20.7048 22.2077 -0 0 0 10.9328 0.103999 1.08785 17.2359 5.07978 -0.770244 22.1979 6.46642 -1.2704 14.7633 4.37165 -0.563711 20.1449 3.94026 -0.701089 25.9267 4.99747 -1.15011 17.2598 3.39601 -0.514341 22.9722 -2.23503 0.454564 29.5451 -2.82302 0.745457 19.6878 -1.92953 0.333378 25.203 -4.86787 1.08857 32.4531 -6.12564 1.7835 21.5888 -4.20873 0.805995 85.3387 -51.3264 -44.9026 -0.425124 29.7541 2.76365 18.8151 -15.5899 1.39379 -61.6529 -67.4002 -83.6431 -146.769 -55.6184 -123.56 0.452862 2.70303 -0.521894 -3.04812 2.48855 0.347179 -1.28066e-06 -1.06722e-07 0 
4.57575 14.721 -1.81626 4.00581 26.0452 14.6212 -24.2816 -0.00381722 0.0395647 -3.18055e-15 -1.70755e-06 0 -0.244886 0.0663525 2.407 1.63396 26.4142 -1.36885 -1.13847 6.71909 0 1.70755e-06 -1.92099e-06 0 25.5681 -8.17702 -31.5927 -19.171 4.75244 0 7.47052e-07 -3.44177e-06 0 4.10661 20.7048 -22.2077 -0 0 0 -9.98273 -0.0867519 0.991491 -15.7311 4.65001 0.639188 -20.2543 5.92928 1.06016 -13.4759 3.99909 0.473125 -18.3893 3.61025 0.584166 -23.6634 4.58945 0.961026 -15.7567 3.10872 0.43341 -20.9739 -2.04998 -0.379491 -26.9737 -2.59705 -0.625573 -17.9756 -1.76765 -0.279765 -23.0035 -4.469 -0.90913 -29.6139 -5.64425 -1.49145 -19.7066 -3.85823 -0.670269 1.70755e-06 -1.92099e-06 0 0.800329 -0.00581353 52.3638 -3.58223 -0.145457 4.64879 -1.70755e-06 -1.70755e-06 0 -4.10661 20.7048 22.2077 -0 0 0 10.8162 0.1018 1.07628 17.0511 5.02723 -0.754847 21.9592 6.40089 -1.24236 14.6053 4.32605 -0.552491 19.9294 3.89996 -0.680697 25.6488 4.94781 -1.12812 17.0753 3.36088 -0.498892 22.7269 -2.21246 0.449369 29.2295 -2.79559 0.727389 19.4777 -1.90976 0.326259 24.933 -4.8193 1.06458 32.1045 -6.06735 1.74804 21.3578 -4.16596 0.785338 80.3388 -47.0559 -69.795 -0.0791763 31.1422 9.9452 20.1467 -17.3945 0.323851 -89.27 -83.2828 -95.9915 -141.472 -57.4524 -118.366 0.452216 -1.28556 -0.500458 -3.512 3.07086 0.377423 5.48646e-14 -3.6819e-06 0 
4.56793 15.147 -2.05996 3.70296 25.5024 14.9935 -23.5847 -0.00390029 0 -0 0 0 -0.0419493 0.0638513 2.10218 0.589928 24.6478 -0.492577 -1.43666 8.10742 0.0395647 -4.26887e-07 -1.70755e-06 0 24.1435 -7.68271 -31.3467 -17.7564 4.3871 0.0395647 -5.33608e-08 -2.66804e-08 0 4.10661 20.7048 -22.2077 -0 0 0 -9.98238 -0.0867458 0.991491 -15.7305 4.64985 0.639188 -20.2536 5.92908 1.05868 -13.4754 3.99895 0.471468 -18.3886 3.61013 0.582825 -23.6626 4.58929 0.962653 -15.7562 3.10861 0.43341 -20.9731 -2.04991 -0.377423 -26.9728 -2.59697 -0.621808 -17.9749 -1.76759 -0.274112 -23.0026 -4.46885 -0.90999 -29.6129 -5.64407 -1.49197 -19.7059 -3.8581 -0.672601 -4.26887e-07 -1.70755e-06 0 0.177657 -0.382507 52.8366 -3.87 -0.172366 5.09813 1.59028e-15 -8.53774e-07 0 -4.10661 20.7048 22.2077 -0 0 0 10.7045 0.0997128 1.06385 16.874 4.9768 -0.738071 21.7304 6.33798 -1.21819 14.4538 4.2823 -0.541039 19.7228 3.86127 -0.670269 25.3825 4.90009 -1.10215 16.8985 3.32717 -0.494163 22.4919 -2.19079 0.435212 28.927 -2.76921 0.71436 19.2762 -1.89078 0.323851 24.6742 -4.77264 1.04229 31.7703 -6.01126 1.7123 21.1363 -4.12489 0.770244 70.5989 -43.264 -93.4043 -0.238729 43.4307 7.50101 19.8897 -15.7511 3.46628 77.9865 -79.6663 88.288 -139.914 -57.9495 -116.544 0.453032 -1.28539 -0.469805 -3.75594 2.03359 0.338041 -4.26887e-06 1.75024e-05 0 
4.56513 14.9778 -2.20142 3.85164 25.0805 14.9228 -23.2718 -0.00331989 0 -1.70755e-06 2.13443e-07 0 0.15102 0.058277 1.75162 -0.297528 23.272 0.247081 -1.9236 8.94368 0.068528 -2.13443e-06 -2.38542e-14 0 22.6103 -7.02638 -30.6807 -16.041 3.64275 0 -5.33608e-08 -2.66804e-08 0.0559529 4.10661 20.7048 -22.2077 -0 0 0 -9.9813 -0.0867273 0.991491 -15.7288 4.64937 0.637962 -20.2514 5.92847 1.06016 -13.474 3.99853 0.473125 -18.3867 3.60976 0.582825 -23.6601 4.58883 0.960211 -15.7545 3.10829 0.4316 -20.9709 -2.04971 -0.383594 -26.9699 -2.59671 -0.619286 -17.973 -1.76741 -0.279765 -23.0002 -4.4684 -0.90999 -29.6097 -5.64352 -1.49197 -19.7038 -3.85771 -0.66793 -2.13443e-06 -2.38542e-14 0 -0.849346 -0.883367 53.5193 -3.61202 -0.179378 5.68442 -1.70755e-06 -2.13443e-06 0 -4.10661 20.7048 22.2077 -0 0 0 10.5966 0.0977195 1.05498 16.7032 4.92809 -0.723072 21.5097 6.27717 -1.19418 14.3076 4.24007 -0.535222 19.5235 3.8239 -0.654913 25.1256 4.85395 -1.08208 16.7279 3.29461 -0.487787 22.265 -2.16985 0.427958 28.6352 -2.74369 0.701089 19.0819 -1.87244 0.311533 24.4244 -4.72752 1.02411 31.4479 -5.95695 1.67953 20.9226 -4.08521 0.754847 69.2648 -39.6334 -107.259 -0.168734 46.6237 8.85824 15.5676 -13.6226 0.331022 49.4509 -66.5767 70.0866 -139.559 -58.2251 -116.239 0.454456 -1.28514 -0.442347 -3.77276 1.48185 0.288035 -2.13443e-06 -1.00318e-05 0.0559529 
4.47807 14.4659 -2.23157 4.52992 24.7233 14.2839 -23.4308 -0.00301756 0 -2.50469e-14 -1.4941e-06 0 0.294393 0.0564565 1.57516 -0.950305 22.3991 0.784341 -2.50277 9.13522 0 -2.50469e-14 -1.4941e-06 0 21.0792 -6.28306 -29.6746 -14.0381 2.67347 0.0559529 2.10775e-06 4.47564e-06 0 4.10661 20.7048 -22.2077 -0 0 0 -9.96965 -0.0865254 0.993069 -15.7104 4.64408 0.641632 -20.2276 5.92184 1.05794 -13.4582 3.99395 0.471468 -18.3651 3.60569 0.584166 -23.6323 4.58378 0.959395 -15.736 3.10475 0.427958 -20.9464 -2.04742 -0.377423 -26.9384 -2.59391 -0.621808 -17.952 -1.76541 -0.282548 -22.9732 -4.46346 -0.906543 -29.5749 -5.63753 -1.4904 -19.6808 -3.85338 -0.6691 -2.50469e-14 -1.4941e-06 0 -2.08998 -1.45973 54.328 -3.02453 -0.16615 6.28722 6.83019e-06 -1.70755e-06 0 -4.10661 20.7048 22.2077 -0 0 0 10.4921 0.0958062 1.04454 16.5376 4.88084 -0.711066 21.2958 6.21814 -1.16834 14.166 4.19909 -0.520393 19.3304 3.78762 -0.645281 24.8765 4.80913 -1.0609 16.5625 3.26302 -0.471468 22.0452 -2.14952 0.420579 28.3522 -2.71888 0.686423 18.8935 -1.85465 0.306467 24.1824 -4.6837 1.0017 31.1355 -5.90413 1.64659 20.7155 -4.04669 0.73913 69.1235 -36.2841 -116.96 -0.232203 48.5965 7.993 11.9728 -12.3744 -0.602632 33.0327 -56.1454 58.146 -140.387 -58.5439 -117.667 0.455775 -1.28483 -0.40926 -3.61904 1.25528 0.288035 -6.4033e-07 -6.93691e-06 0 
4.23902 13.9753 -2.16835 5.71153 24.3319 13.0072 -24.0468 -0.00377294 0 -1.70755e-06 -1.4941e-06 0 0.352301 0.0668973 1.78613 -1.31126 22.0218 1.07991 -3.08015 8.73933 0 3.20165e-06 -4.69575e-06 0 19.6861 -5.51698 -28.4259 -11.8068 1.66469 0 8.53774e-07 2.66804e-08 0 4.10661 20.7048 -22.2077 -0 0 0 -9.93726 -0.0859654 0.990701 -15.6591 4.62936 0.637962 -20.1614 5.9034 1.04828 -13.4143 3.98121 0.469805 -18.3053 3.59437 0.58148 -23.5552 4.56974 0.952025 -15.6848 3.09491 0.424284 -20.8783 -2.04106 -0.373253 -26.8507 -2.58611 -0.616753 -17.8937 -1.75987 -0.271242 -22.8983 -4.44974 -0.902216 -29.4782 -5.62086 -1.47827 -19.6166 -3.84136 -0.666757 3.20165e-06 -4.69575e-06 0 -3.33067 -2.04811 55.165 -2.35019 -0.14071 6.8512 -1.04958e-13 3.41509e-06 0 -4.10661 20.7048 22.2077 -0 0 0 10.3918 0.093989 1.03551 16.3788 4.83548 -0.696609 21.0908 6.16144 -1.14738 14.0301 4.15978 -0.511289 19.1451 3.75279 -0.633036 24.6377 4.76606 -1.04079 16.4039 3.2327 -0.466461 21.8343 -2.12998 0.40926 28.0809 -2.69502 0.673763 18.7128 -1.83756 0.296075 23.9503 -4.6416 0.985156 30.8359 -5.8533 1.6154 20.5169 -4.00969 0.724154 68.2738 -35.8225 -115.314 -0.317284 48.106 6.63542 12.4108 -13.3467 0.633036 34.688 -57.5906 59.2099 -142.152 -59.2069 -120.784 0.457351 -1.28452 -0.37115 -3.39402 1.14017 0.247081 -1.92099e-06 -1.00852e-05 0 
3.82219 13.7382 -2.06369 7.25529 23.7877 11.1243 -24.9997 -0.00532603 0 -2.34788e-06 -3.41509e-06 0 0.307403 0.0946219 2.51389 -1.35307 22.0389 1.11626 -3.58886 7.92188 0 -1.70755e-06 2.13443e-07 0 18.5542 -4.76886 -27.0444 -9.45813 0.791552 0 1.6201e-14 -3.49514e-06 0 4.10661 20.7048 -22.2077 -0 0 0 -9.87767 -0.0849401 0.984361 -15.5648 4.60229 0.629316 -20.0397 5.86946 1.03475 -13.3336 3.95777 0.4614 -18.1953 3.57355 0.569237 -23.4134 4.54388 0.941276 -15.5906 3.07681 0.422435 -20.753 -2.02937 -0.369035 -26.6895 -2.57174 -0.609091 -17.7863 -1.74965 -0.268341 -22.7604 -4.42448 -0.890867 -29.3003 -5.59016 -1.46337 -19.4986 -3.81922 -0.657299 -1.70755e-06 2.13443e-07 0 -4.38383 -2.5751 55.9356 -1.8087 -0.116567 7.37443 -0 0 0 -4.10661 20.7048 22.2077 -0 0 0 10.2986 0.0923145 1.02411 16.2312 4.79327 -0.682993 20.9001 6.10865 -1.12881 13.9038 4.12319 -0.500458 18.9729 3.72037 -0.620549 24.4156 4.72593 -1.02181 16.2564 3.20448 -0.4597 21.6382 -2.1118 0.403482 27.8286 -2.67279 0.660861 18.5448 -1.82166 0.29342 23.7345 -4.60237 0.969136 30.5574 -5.80589 1.58655 20.3322 -3.97525 0.712165 67.0687 -34.8695 -113.725 -0.408573 47.3171 5.1104 12.4662 -14.2735 1.67907 36.0102 -58.8794 59.8735 -144.601 -60.4037 -125.399 0.458589 -1.28427 -0.335718 -3.16233 0.998225 0.243893 4.26887e-07 -3.64188e-06 0 
3.25361 13.7769 -1.98667 8.93142 23.0035 8.78676 -26.0973 -0.00763501 0.0395647 2.13443e-07 3.97569e-16 0 0.165041 0.137241 3.78579 -1.08244 22.2992 0.887345 -4.00196 6.89252 0.068528 -8.53774e-07 1.70755e-06 0 17.7556 -4.05797 -25.6352 -7.13804 0.171339 0 -1.70755e-06 1.65419e-06 0 4.10661 20.7048 -22.2077 -0 0 0 -9.79087 -0.0834573 0.973969 -15.4274 4.56283 0.620549 -19.8624 5.81997 1.01951 -13.2161 3.92361 0.456282 -18.0349 3.5432 0.55953 -23.2068 4.50617 0.924496 -15.4533 3.05044 0.41684 -20.5704 -2.01231 -0.362616 -26.4546 -2.55078 -0.598723 -17.6299 -1.73477 -0.268341 -22.5596 -4.38764 -0.87491 -29.0412 -5.54534 -1.43801 -19.3268 -3.78694 -0.646493 -8.53774e-07 1.70755e-06 0 -5.11586 -2.97779 56.5627 -1.55526 -0.10718 7.88367 -3.41509e-06 -2.13443e-06 0.0559529 -4.10661 20.7048 22.2077 -0 0 0 10.2161 0.0908448 1.01567 16.1005 4.75588 -0.674924 20.7314 6.06187 -1.11205 13.792 4.0908 -0.495744 18.8204 3.69164 -0.611656 24.2191 4.69035 -1.00716 16.1258 3.17949 -0.451107 21.4647 -2.09567 0.39762 27.6053 -2.65306 0.652518 18.3961 -1.80757 0.29342 23.5435 -4.5676 0.953667 30.3109 -5.76381 1.56169 20.1688 -3.94472 0.701089 65.7961 -33.4958 -112.194 -0.49005 46.1037 3.62523 12.0373 -15.1081 2.34172 36.9826 -60.0102 60.1525 -147.572 -62.1378 -131.195 0.459465 -1.28411 -0.303902 -2.93861 0.809726 0.237388 1.81427e-06 1.00985e-05 0 
2.60579 13.989 -1.96945 10.4924 21.9762 6.2431 -27.1393 -0.0104065 0 1.4941e-06 -2.13443e-07 0 -0.0508609 0.184024 5.49261 -0.537476 22.6526 0.444113 -4.32975 5.83826 0.118694 3.57812e-15 -2.13443e-07 0 17.3211 -3.33319 -22.5586 -4.99439 0.163195 -3.73981 8.53774e-07 -1.65419e-06 0 4.10661 20.7048 -22.2077 -0 0 0 -9.68322 -0.0816363 0.962653 -15.2571 4.51385 0.606516 -19.6425 5.75852 0.99543 -13.0703 3.88122 0.438794 -17.8361 3.50551 0.549651 -22.9505 4.45931 0.905679 -15.283 3.0177 0.401538 -20.344 -1.99112 -0.356082 -26.1633 -2.52472 -0.585504 -17.4359 -1.71629 -0.259443 -22.3106 -4.34187 -0.856831 -28.7199 -5.48959 -1.40831 -19.1136 -3.74687 -0.634271 3.57812e-15 -2.13443e-07 0 -5.46319 -3.22226 56.9929 -1.65238 -0.121634 8.41904 1.70755e-06 -4.26887e-07 0 -4.10661 20.7048 22.2077 -0 0 0 10.1475 0.0896325 1.00948 15.9919 4.72479 -0.663226 20.5912 6.02295 -1.09645 13.6991 4.06386 -0.487787 18.6937 3.66775 -0.603929 24.0558 4.66075 -0.991491 16.0174 3.15871 -0.444113 21.3205 -2.08227 0.391671 27.4197 -2.63664 0.642851 18.2726 -1.79585 0.29342 23.3848 -4.53867 0.938778 30.1061 -5.72877 1.54151 20.033 -3.91934 0.6921 64.7818 -31.8609 -110.649 -0.550815 44.4481 2.34673 11.0755 -15.9249 2.55374 37.6802 -61.0387 60.1253 -150.95 -64.235 -137.712 0.460373 -1.28393 -0.282548 -2.71183 0.622042 0.193827 8.53774e-07 2.66804e-08 0.0559529 
1.97538 14.2751 -1.95152 11.7597 20.804 3.77191 -27.9822 -0.0124933 0 1.60083e-06 -1.81427e-06 0 -0.306551 0.221755 7.41754 0.217283 22.9874 -0.172458 -4.60591 4.88003 -0.185575 2.13443e-07 1.70755e-06 0 17.2816 -2.30743 -18.7049 -3.07716 0.254083 -9.43841 -0 0 0 4.10661 20.7048 -22.2077 -0 0 0 -9.56544 -0.0796669 0.953667 -15.0707 4.46023 0.589501 -19.4019 5.69119 0.972361 -12.9108 3.83481 0.435212 -17.6186 3.46423 0.538138 -22.6703 4.40795 0.882924 -15.0968 2.98185 0.395647 -20.0964 -1.96791 -0.344917 -25.8447 -2.49613 -0.573347 -17.2237 -1.69605 -0.262442 -22.0382 -4.29171 -0.83462 -28.3685 -5.42841 -1.37171 -18.8805 -3.70296 -0.616753 2.13443e-07 1.70755e-06 0 -5.43924 -3.31225 57.1984 -2.0645 -0.162695 9.011 3.41509e-06 -4.26887e-07 0 -4.10661 20.7048 22.2077 -0 0 0 10.0945 0.0886999 1.00326 15.9079 4.70073 -0.653717 20.4827 5.99281 -1.08353 13.6272 4.04301 -0.481325 18.5957 3.64925 -0.597414 23.9295 4.63781 -0.984361 15.9334 3.14262 -0.438794 21.2089 -2.07188 0.383594 27.2761 -2.62391 0.636734 18.1769 -1.78678 0.276953 23.262 -4.51626 0.927877 29.9476 -5.7016 1.52518 19.9279 -3.89968 0.686423 64.1493 -30.1502 -109.076 -0.588188 42.5427 1.37057 9.58853 -16.8455 2.3273 38.179 -62.0186 59.8629 -154.553 -66.4213 -144.374 0.460667 -1.28391 -0.274112 -2.46722 0.472234 0.223812 -5.725e-14 1.02453e-05 0 
1.44853 14.6043 -1.76766 12.6763 19.6489 1.60811 -28.5754 -0.0137434 0 -1.70755e-06 1.70755e-06 0.0559529 -0.568419 0.241595 9.30236 1.09944 23.2432 -0.911709 -4.87075 4.06204 -0.205584 -1.00187e-13 -2.98821e-06 0 17.2057 -1.94553 -15.5366 -1.59545 0.195414 -13.9649 -6.4033e-07 1.65419e-06 0 4.10661 20.7048 -22.2077 -0 0 0 -9.44913 -0.0777457 0.939612 -14.8867 4.40723 0.574711 -19.1645 5.62461 0.951202 -12.7534 3.78896 0.420579 -17.4039 3.42342 0.523392 -22.3935 4.35713 0.861386 -14.9129 2.94642 0.387653 -19.8518 -1.94495 -0.340348 -25.53 -2.46783 -0.55953 -17.0141 -1.67604 -0.253338 -21.7692 -4.24207 -0.817565 -28.0215 -5.36779 -1.34054 -18.6503 -3.65955 -0.602632 -1.00187e-13 -2.98821e-06 0 -5.12749 -3.28605 57.1786 -2.67807 -0.226504 9.66726 -3.41509e-06 -1.94014e-13 0 -4.10661 20.7048 22.2077 -0 0 0 10.0565 0.0880354 0.999354 15.8478 4.68349 -0.650115 20.4051 5.97123 -1.07701 13.5758 4.02809 -0.474777 18.5255 3.636 -0.592151 23.8391 4.62139 -0.976377 15.8734 3.1311 -0.438794 21.129 -2.06444 0.383594 27.1733 -2.61479 0.633036 18.1085 -1.78028 0.288035 23.1741 -4.50021 0.921104 29.8342 -5.68213 1.51436 19.8527 -3.8856 0.679547 63.7534 -28.4815 -107.531 -0.596815 40.7826 0.901348 7.60506 -18.004 1.70038 38.7202 -63.1319 59.5315 -158.057 -68.4303 -150.538 0.461277 -1.28378 -0.274112 -2.18923 0.348318 0.176939 -4.26887e-07 3.41509e-06 0 
1.06912 14.9955 -1.2149 13.2933 18.6691 0.0969133 -28.9488 -0.0135278 0.0395647 1.81427e-06 -1.06722e-07 0 -0.811344 0.242034 10.9293 2.01957 23.3984 -1.673 -5.1582 3.37545 -0.259443 -3.41509e-06 1.28066e-06 0 17.2133 -1.80539 -13.0986 -0.555911 0.0844179 -17.2713 2.13443e-07 -1.73423e-06 0 4.10661 20.7048 -22.2077 -0 0 0 -9.33154 -0.0758268 0.931244 -14.7007 4.35359 0.56232 -18.9245 5.55719 0.927877 -12.5942 3.74257 0.411168 -17.1868 3.3821 0.512817 -22.1138 4.30564 0.839296 -14.727 2.91056 0.369035 -19.6046 -1.92171 -0.333378 -25.2119 -2.43914 -0.545362 -16.8022 -1.65578 -0.234068 -21.4973 -4.1918 -0.795242 -27.6708 -5.30631 -1.30744 -18.4175 -3.61559 -0.585504 -3.41509e-06 1.28066e-06 0 -4.66304 -3.20179 56.9606 -3.34107 -0.303047 10.3624 8.53774e-07 -2.13443e-06 0 -4.10661 20.7048 22.2077 -0 0 0 10.0286 0.0875498 0.997002 15.8037 4.67086 -0.647703 20.3482 5.9554 -1.06898 13.5381 4.01714 -0.473125 18.4741 3.62628 -0.592151 23.7728 4.60933 -0.972361 15.8293 3.12265 -0.437006 21.0704 -2.05898 0.381548 27.098 -2.6081 0.629316 18.0583 -1.77551 0.282548 23.1097 -4.48843 0.918551 29.751 -5.66784 1.50659 19.7976 -3.87527 0.679547 63.0313 -27.1431 -106.411 -0.614703 39.9064 0.40926 5.09686 -19.1941 0.708861 39.128 -63.8256 59.4223 -164.251 -68.6503 -158.76 -0.49097 0.56714 -0.185575 -1.40307 0.114885 0.189746 -7.1637e-14 3.30837e-06 0 
0.826259 15.4627 -0.154949 13.7093 17.9679 -1.32823 -29.1693 -0.0129541 0 -1.06722e-07 -1.70755e-06 0 -1.02374 0.227771 12.1683 2.89511 23.4478 -2.39852 -5.4906 2.79515 -0.306467 -4.26887e-07 6.4033e-07 0 17.2869 -1.7636 -11.3421 0.087625 -0.0150383 -19.4604 -6.4033e-07 -1.81427e-06 0 4.10661 20.7048 -22.2077 -0 0 0 -9.25534 -0.074596 0.921104 -14.5802 4.31881 0.552491 -18.769 5.51345 0.911709 -12.491 3.7125 0.405418 -17.0461 3.35531 0.50202 -21.9325 4.27222 0.828029 -14.6065 2.88731 0.366908 -19.4443 -1.90662 -0.326259 -25.0058 -2.42051 -0.538138 -16.6649 -1.64265 -0.243893 -21.3211 -4.15917 -0.782342 -27.4436 -5.26636 -1.28692 -18.2667 -3.58708 -0.576071 -4.26887e-07 6.4033e-07 0 -4.20107 -3.11569 56.5972 -3.91003 -0.377979 11.0388 -1.70755e-06 5.725e-14 0 -4.10661 20.7048 22.2077 -0 0 0 10.017 0.0873472 0.997002 15.7853 4.66557 -0.646493 20.3244 5.94878 -1.06752 13.5223 4.01257 -0.474777 18.4526 3.62222 -0.592151 23.7451 4.60429 -0.969136 15.8109 3.11912 -0.435212 21.046 -2.0567 0.379491 27.0665 -2.6053 0.628071 18.0373 -1.77352 0.279765 23.0828 -4.48351 0.916845 29.7163 -5.66186 1.50347 19.7745 -3.87095 0.676083 61.3025 -25.2958 -105.462 -0.626049 41.2134 0.447624 2.93681 -19.8118 -0.338041 41.6395 -64.8883 61.7735 -168.541 -68.6483 -164.454 -1.05228 2.3148 0.111906 -0.925914 -0.493732 0.167859 -8.53774e-07 3.34839e-06 0 
0.680759 15.9826 1.30135 14.0071 17.5763 -2.10367 -29.2938 -0.0118459 0.0559529 5.33608e-08 5.33608e-08 0 -1.20791 0.203874 12.9997 3.66316 23.3862 -3.03499 -5.87584 2.31019 -0.349426 6.4033e-07 -1.92099e-06 0 17.4225 -1.73043 -10.1569 0.404543 -0.074064 -20.7487 -0 0 0 4.10661 20.7048 -22.2077 -0 0 0 -9.18318 -0.0734398 0.912567 -14.4661 4.28586 0.546795 -18.6218 5.47199 0.89961 -12.3934 3.68401 0.399584 -16.9129 3.32991 0.490985 -21.7609 4.24054 0.814688 -14.4924 2.86529 0.364768 -19.2926 -1.89232 -0.326259 -24.8106 -2.40283 -0.527859 -16.5349 -1.6302 -0.237388 -21.1543 -4.12823 -0.770244 -27.2284 -5.22845 -1.26546 -18.1239 -3.56005 -0.569237 6.4033e-07 -1.92099e-06 0 -3.87633 -3.06503 56.1564 -4.28757 -0.436442 11.6193 8.53774e-07 -1.70755e-06 0 -4.10661 20.7048 22.2077 -0 0 0 10.0118 0.0872562 0.994644 15.777 4.6632 -0.652518 20.3137 5.9458 -1.06532 13.5152 4.01051 -0.474777 18.4429 3.62039 -0.590827 23.7326 4.60203 -0.96671 15.8027 3.11753 -0.427958 21.035 -2.05568 0.383594 27.0523 -2.60404 0.624321 18.0279 -1.77263 0.279765 23.0707 -4.48129 0.91428 29.7007 -5.65918 1.50138 19.7642 -3.86901 0.673763 59.4637 -23.9468 -104.629 -0.629634 42.8902 0.706649 0.513866 -20.6105 -1.44236 44.3663 -66.0664 64.1819 -170.955 -68.5318 -167.747 -1.23449 3.94177 0.068528 -0.675246 -1.45315 0.0884693 -8.53774e-07 3.44177e-06 0 
0.593657 16.4984 2.83263 14.2236 17.4639 -2.53003 -29.3467 -0.00999783 0.0559529 -3.18055e-15 1.70755e-06 0.0559529 -1.37409 0.173453 13.4868 4.28732 23.2071 -3.54974 -6.30742 1.93235 -0.387653 1.28066e-06 -4.26887e-07 0 17.6326 -1.66233 -9.40614 0.456692 -0.0862913 -21.3993 6.4033e-07 -1.65419e-06 0 4.10661 20.7048 -22.2077 -0 0 0 -9.1298 -0.0725901 0.907406 -14.3817 4.26147 0.536682 -18.5128 5.4413 0.888227 -12.3211 3.66292 0.393664 -16.8143 3.31111 0.489388 -21.6339 4.21707 0.805024 -14.408 2.84898 0.356082 -19.1804 -1.88174 -0.30901 -24.6662 -2.38974 -0.523392 -16.4388 -1.62098 -0.243893 -21.0309 -4.10532 -0.761043 -27.0693 -5.20036 -1.25178 -18.0183 -3.54004 -0.560927 1.28066e-06 -4.26887e-07 0 -3.76477 -3.06322 55.706 -4.44016 -0.468339 12.0364 1.70755e-06 -2.13443e-06 0 -4.10661 20.7048 22.2077 -0 0 0 10.0076 0.0871837 0.994644 15.7704 4.6613 -0.64891 20.3052 5.94343 -1.06605 13.5096 4.00887 -0.474777 18.4352 3.61894 -0.58684 23.7227 4.60022 -0.96671 15.7961 3.11627 -0.429783 21.0262 -2.05486 0.379491 27.041 -2.60304 0.626823 18.0204 -1.77191 0.282548 23.061 -4.47953 0.911709 29.6882 -5.65703 1.50191 19.7559 -3.86746 0.672601 57.832 -22.9927 -103.786 -0.622724 44.4788 1.1371 -1.91827 -21.3383 -2.57996 47.0716 -67.2631 66.4319 -171.7 -68.4173 -168.992 -1.04487 5.43622 0.0791294 -0.603497 -2.74592 0.0395647 1.98785e-15 1.33402e-07 0 
0.546445 16.9504 4.05829 14.3558 17.5581 -2.71969 -29.3249 -0.00788217 0 -1.60083e-07 -3.46846e-06 0 -1.53263 0.139007 13.741 4.75711 22.9145 -3.93464 -6.76263 1.68271 -0.440574 -8.53774e-07 -1.4941e-06 0 17.9322 -1.54955 -8.95614 0.299998 -0.0573975 -21.6652 2.58296e-14 1.76091e-06 0 4.10661 20.7048 -22.2077 -0 0 0 -9.08605 -0.0718975 0.904815 -14.3125 4.24148 0.530816 -18.4236 5.41613 0.878481 -12.2619 3.64563 0.387653 -16.7336 3.2957 0.481325 -21.5299 4.19782 0.799169 -14.3389 2.83561 0.356082 -19.0884 -1.87306 -0.314035 -24.5478 -2.379 -0.512817 -16.3599 -1.61343 -0.2307 -20.9298 -4.08653 -0.755884 -26.9388 -5.17731 -1.2411 -17.9317 -3.52364 -0.556725 -8.53774e-07 -1.4941e-06 0 -3.86621 -3.10529 55.2988 -4.39461 -0.472294 12.2623 -9.93923e-17 -1.70755e-06 0 -4.10661 20.7048 22.2077 -0 0 0 10.0085 0.0871988 0.994644 15.7718 4.6617 -0.645281 20.3069 5.94392 -1.06532 13.5108 4.00921 -0.476422 18.4368 3.61924 -0.58684 23.7247 4.6006 -0.96671 15.7974 3.11653 -0.429783 21.028 -2.05503 0.387653 27.0434 -2.60325 0.624321 18.022 -1.77206 0.282548 23.063 -4.4799 0.913424 29.6908 -5.65748 1.50138 19.7576 -3.86779 0.674924 56.6993 -22.5116 -102.991 -0.602939 45.548 1.67347 -4.37494 -21.8086 -3.68138 49.6738 -68.4138 68.5002 -171.031 -68.4224 -168.587 -0.481184 6.79158 -0.185575 -0.686051 -4.36345 0.0559529 -4.78326e-14 1.0272e-05 0 
0.53762 17.3014 4.74696 14.3908 17.7663 -2.7806 -29.2231 -0.00558562 0 -5.33608e-08 -1.70755e-06 0 -1.68676 0.102231 13.8724 5.08285 22.5376 -4.19875 -7.20452 1.56913 -0.482949 -0 0 0 18.3143 -1.40363 -8.69029 0.00041288 -8.9783e-05 -21.7504 -1.28066e-06 -2.13443e-07 0 4.10661 20.7048 -22.2077 -0 0 0 -9.04984 -0.0713269 0.900479 -14.2553 4.22493 0.526374 -18.3497 5.39529 0.873119 -12.2129 3.63133 0.383594 -16.6667 3.28294 0.486179 -21.4438 4.18189 0.793271 -14.2816 2.82455 0.349426 -19.0123 -1.86587 -0.314035 -24.4499 -2.3701 -0.515861 -16.2947 -1.60717 -0.2307 -20.8461 -4.07098 -0.746506 -26.8309 -5.15821 -1.23224 -17.8601 -3.51005 -0.553906 -0 0 0 -4.1148 -3.17528 54.9663 -4.22002 -0.455578 12.3176 1.70755e-06 -4.92986e-14 0 -4.10661 20.7048 22.2077 -0 0 0 10.0109 0.0872412 0.997786 15.7757 4.66281 -0.644067 20.3119 5.94531 -1.06311 13.5141 4.01017 -0.476422 18.4413 3.62009 -0.588172 23.7305 4.60165 -0.968328 15.8013 3.11727 -0.43341 21.0331 -2.05551 0.379491 27.05 -2.60383 0.625573 18.0264 -1.77248 0.282548 23.0687 -4.48093 0.91428 29.6981 -5.65873 1.50243 19.7624 -3.86869 0.674924 56.1774 -22.4656 -102.31 -0.572683 45.9732 2.25383 -6.77616 -21.9797 -4.66711 52.0827 -69.4633 70.3548 -169.131 -68.6498 -166.846 0.467445 8.01158 -0.306467 -0.916833 -6.3016 0 -1.70755e-06 1.35803e-05 0 
0.565638 17.5449 4.92381 14.3357 18.0001 -2.79408 -29.0583 -0.00384472 0 -0 0 0 -1.82921 0.067097 13.9595 5.2878 22.134 -4.36136 -7.58849 1.57071 -0.509756 1.06722e-06 2.13443e-07 0 18.7334 -1.24824 -8.52648 -0.358133 0.0689107 -21.7841 1.92099e-06 5.44281e-06 0 4.10661 20.7048 -22.2077 -0 0 0 -9.01957 -0.0708515 0.89961 -14.2074 4.21108 0.523392 -18.288 5.37786 0.865013 -12.172 3.61937 0.387653 -16.6109 3.27227 0.474777 -21.3718 4.16855 0.789314 -14.2338 2.8153 0.349426 -18.9486 -1.85986 -0.30901 -24.368 -2.36266 -0.509756 -16.2402 -1.60194 -0.2307 -20.7761 -4.05796 -0.747554 -26.7407 -5.14223 -1.22268 -17.8002 -3.49869 -0.548225 1.06722e-06 2.13443e-07 0 -4.4135 -3.25336 54.719 -4.00179 -0.43006 12.2627 -8.53774e-07 8.53774e-07 0 -4.10661 20.7048 22.2077 -0 0 0 10.0137 0.0872906 0.99543 15.7802 4.66409 -0.645281 20.3177 5.94693 -1.06752 13.5179 4.01129 -0.479697 18.4466 3.62108 -0.592151 23.7373 4.60288 -0.969136 15.8058 3.11813 -0.4316 21.0391 -2.05607 0.387653 27.0577 -2.60452 0.629316 18.0315 -1.77296 0.282548 23.0752 -4.48213 0.91428 29.7066 -5.66019 1.50138 19.7681 -3.86975 0.674924 56.1605 -22.6982 -101.779 -0.539297 45.9102 2.78762 -8.92005 -21.9268 -5.46073 54.1573 -70.3463 71.9195 -169.628 -67.6105 -167.31 0.47063 10.1174 -0.30901 -0.868035 -7.7241 0.0559529 8.53774e-07 -3.57518e-06 0 
0.616078 17.695 4.80767 14.2292 18.1939 -2.79799 -28.8755 -0.00215599 0 -6.4605e-15 -1.70755e-06 0 -1.94564 0.0372472 14.0353 5.4016 21.7771 -4.4495 -7.8768 1.63853 -0.518886 -2.50469e-14 -1.4941e-06 0 19.1146 -1.11121 -8.42081 -0.68631 0.132292 -21.8195 -4.26887e-07 -2.66804e-08 0 4.10661 20.7048 -22.2077 -0 0 0 -8.99591 -0.070481 0.896996 -14.17 4.20026 0.523392 -18.2397 5.36424 0.863201 -12.14 3.61001 0.381548 -16.5672 3.26393 0.478062 -21.3155 4.15813 0.782342 -14.1964 2.80806 0.347179 -18.8989 -1.85516 -0.311533 -24.304 -2.35684 -0.505128 -16.1975 -1.59785 -0.227282 -20.7214 -4.04779 -0.741245 -26.6701 -5.12973 -1.21626 -17.7534 -3.48981 -0.548225 -2.50469e-14 -1.4941e-06 0 -4.67362 -3.3209 54.5544 -3.81272 -0.406588 12.1698 -8.53774e-07 8.53774e-07 0 -4.10661 20.7048 22.2077 -0 0 0 10.0161 0.0873312 0.997002 15.7839 4.66516 -0.646493 20.3225 5.94826 -1.06825 13.5211 4.01221 -0.479697 18.4509 3.6219 -0.590827 23.7429 4.6039 -0.968328 15.8095 3.11884 -0.43341 21.044 -2.05652 0.381548 27.064 -2.60508 0.625573 18.0357 -1.77336 0.285305 23.0806 -4.48312 0.915136 29.7135 -5.66139 1.50347 19.7727 -3.87061 0.672601 56.4004 -23.0037 -101.407 -0.510938 45.6463 3.21094 -10.5704 -21.7818 -6.01504 55.7416 -71.0043 73.1003 -169.014 -68.4762 -166.76 0.468049 8.12613 -0.285305 -0.866236 -6.93477 0.0395647 8.53774e-07 3.5485e-06 0 
0.665717 17.775 4.63177 14.1255 18.3174 -2.80777 -28.7281 -0.000926372 0 5.33608e-08 3.41509e-06 0 -2.02366 0.0169608 14.0969 5.45512 21.5268 -4.48961 -8.05423 1.71577 -0.523392 -0 0 0 19.3881 -1.01506 -8.3544 -0.91781 0.177233 -21.8582 -6.4033e-07 -8.00413e-08 0 4.10661 20.7048 -22.2077 -0 0 0 -8.98026 -0.0702364 0.894374 -14.1453 4.1931 0.520393 -18.2078 5.35522 0.859567 -12.1188 3.60382 0.381548 -16.5383 3.2584 0.474777 -21.2783 4.15123 0.782342 -14.1716 2.80328 0.347179 -18.866 -1.85205 -0.303902 -24.2617 -2.35298 -0.506676 -16.1693 -1.59514 -0.223812 -20.6853 -4.04105 -0.73913 -26.6235 -5.12146 -1.21239 -17.7224 -3.48393 -0.542484 -0 0 0 -4.84542 -3.36635 54.4604 -3.69113 -0.391065 12.0916 -3.81667e-14 1.28066e-06 0 -4.10661 20.7048 22.2077 -0 0 0 10.0175 0.0873567 0.996216 15.7862 4.66582 -0.645281 20.3255 5.94909 -1.06752 13.5231 4.01278 -0.471468 18.4536 3.62241 -0.589501 23.7463 4.60453 -0.9659 15.8118 3.11929 -0.4316 21.0471 -2.05681 0.383594 27.068 -2.60543 0.628071 18.0383 -1.77362 0.285305 23.084 -4.48374 0.915136 29.7179 -5.66215 1.50295 19.7756 -3.87116 0.676083 56.6562 -23.234 -101.183 -0.492481 45.4132 3.47868 -11.6024 -21.6564 -6.34117 56.7411 -71.4096 73.8426 -167.787 -70.2049 -165.646 0.465291 4.32723 -0.240663 -0.882631 -5.11541 0.0395647 1.70755e-06 -1.00852e-05 0 
0.697267 17.8092 4.51697 14.0618 18.3752 -2.8139 -28.6455 -0.00026728 0.0395647 -1.06722e-07 -1.76091e-06 0 -2.06248 0.00656608 14.1337 5.47481 21.3981 -4.50267 -8.13651 1.76542 -0.526374 -4.26887e-07 -4.26887e-07 0 19.531 -0.965627 -8.32105 -1.03628 0.200357 -21.8848 -0 0 0 4.10661 20.7048 -22.2077 -0 0 0 -8.97239 -0.0701136 0.894374 -14.1328 4.1895 0.518886 -18.1918 5.35069 0.857744 -12.1081 3.60071 0.387653 -16.5238 3.25563 0.479697 -21.2596 4.14776 0.77833 -14.1592 2.80087 0.344917 -18.8494 -1.85048 -0.301316 -24.2404 -2.35105 -0.50202 -16.1552 -1.59378 -0.234068 -20.6671 -4.03767 -0.738071 -26.6 -5.1173 -1.20916 -17.7069 -3.48098 -0.542484 -4.26887e-07 -4.26887e-07 0 -4.92764 -3.38864 54.4181 -3.63513 -0.383802 12.0497 3.41509e-06 -1.70755e-06 0 -4.10661 20.7048 22.2077 -0 0 0 10.0182 0.0873676 0.99543 15.7872 4.6661 -0.646493 20.3268 5.94944 -1.06752 13.5239 4.01303 -0.474777 18.4548 3.62263 -0.593471 23.7478 4.6048 -0.968328 15.8128 3.11948 -0.43341 21.0484 -2.05693 0.383594 27.0697 -2.60558 0.628071 18.0395 -1.77372 0.279765 23.0855 -4.484 0.915991 29.7198 -5.66247 1.50347 19.7768 -3.87139 0.677239 56.809 -23.352 -101.08 -0.483724 45.2898 3.60314 -12.0893 -21.5909 -6.48947 57.2132 -71.5981 74.1927 -165.538 -72.7885 -163.566 0.463886 -1.28329 -0.213062 -0.893643 -2.2791 0.0559529 8.53774e-07 1.06722e-07 0 
0.709568 17.8194 4.47133 14.0386 18.3927 -2.81779 -28.6169 -0.000123483 0.0395647 -1.70755e-06 5.33608e-08 0 -2.07494 0.00331176 14.1475 5.47984 21.356 -4.50667 -8.16139 1.78357 -0.527859 -4.26887e-07 -1.70755e-06 0 19.5783 -0.949483 -8.31078 -1.07482 0.207904 -21.895 1.92099e-06 2.02771e-06 0 4.10661 20.7048 -22.2077 -0 0 0 -8.96984 -0.0700739 0.894374 -14.1288 4.18834 0.521894 -18.1866 5.34922 0.855002 -12.1047 3.5997 0.385629 -16.5191 3.25473 0.474777 -21.2535 4.14664 0.779335 -14.1552 2.80009 0.344917 -18.8441 -1.84997 -0.311533 -24.2335 -2.35042 -0.503577 -16.1506 -1.59334 -0.237388 -20.6612 -4.03657 -0.73701 -26.5924 -5.11595 -1.20916 -17.7018 -3.48002 -0.543925 -4.26887e-07 -1.70755e-06 0 -4.9528 -3.39562 54.4053 -3.61875 -0.381638 12.0365 -1.70755e-06 -3.41509e-06 0 -4.10661 20.7048 22.2077 -0 0 0 10.0184 0.0873709 0.997002 15.7875 4.66619 -0.647703 20.3272 5.94955 -1.06825 13.5242 4.0131 -0.474777 18.4551 3.6227 -0.589501 23.7483 4.60488 -0.96671 15.8131 3.11953 -0.438794 21.0488 -2.05697 0.385629 27.0702 -2.60563 0.628071 18.0398 -1.77375 0.282548 23.0859 -4.48408 0.916845 29.7204 -5.66257 1.50399 19.7772 -3.87146 0.678394 56.8646 -23.392 -101.05 -0.481042 45.2466 3.63989 -12.2411 -21.5693 -6.53421 57.356 -71.6544 74.2989 -165.548 -72.7825 -163.577 0.463933 -1.2832 -0.220287 -0.896016 -2.30149 0.068528 1.70755e-06 -3.36173e-06 0.0559529 
